legalName,website,city,state,zipCode,apartmentOrSuite,streetNumber,streetOrRoad,country,linkedInPage,aum,fundOrSyndication,assetClass,irr,coc,equityMultiple,fees,holdPeriod,exemption
Great Expectations,grtexp.co,Seattle,Washington,98102,,1112,Federal Avenue East,United States,linkedin.com/company/grtexp,,Syndication,Affordable Housing,,,,,,
Arei Group,areigrp.com,New York,New York,,,,,United States,linkedin.com/company/areigrp,,,Apartments,,,,,,
Avance Capital,avancecapitalllc.com,,,,,,,,linkedin.com/company/avancecapital,,Syndication,Apartments,,,,,,
BridgeGaps Real Estate,bridgegaps.com,,,,,,,,,167000000,Syndication,Apartments,,,,,,
Redwood Living,byredwood.com,,,,,,,Canada,,,,Apartments,,,,,,
Common Sense Ventures,commonsense.ventures,San Antonio,Texas,,,,,United States,,150000000,Syndication,Apartments,,,,,,
Vivo Investments,vivoinvestmentgroup.com,,,,,,,,,,Syndication,Apartments,,,,,,
Icon Heritage Partners,iconheritagepartners.com,Atlanta,Georgia,,,,,United States,linkedin.com/company/icon-heritage-partners,,Fund,"Apartments, Housing",,,,,,
Ashland Capital,ashlandcapitalfund.com,,,,,,,,linkedin.com/company/ashland-capital,,Syndication,"Apartments, Multifamily",,,,,,
XSITE Capital Investment,xsitecapital.com,Washington,District of Columbia,20001,,,,United States,linkedin.com/company/xsite-capital,168000000,Syndication,"Apartments, Multifamily",,,,,,
Ritmo Properties,bozzuto.com,,,,,,,Canada,,,Syndication,Apartments,,,,,,
Darwin German Real Estate Investments,darwingerman.com,Irving,Texas,75063,,9901,Valley Ranch Parkway East,United States,linkedin.com/company/darwin-german-real-estate-investments,,Syndication,Apartments,,,,,,
Davlyn Investments,davlyninvestments.com,San Diego,California,92130,,12625,High Bluff Drive,United States,linkedin.com/company/davlyn-investments-property-management,,Syndication,Apartments,,,,,,
"First Cornerstone Group, LLC",fcgllc.com,,,,,,,,,,,Apartments,,,,,,
Fountain Residential Partners,fountainresidential.com,Dallas,Texas,,,,,United States,linkedin.com/company/fountain-residential-partners,,,Apartments,,,,,,
HLC Equity,hlcequity.com,,,,,,,,linkedin.com/company/hlc-equity,,Syndication,Apartments,,,,,,
Housing Diversity Corporation,housingdiversity.com,Seattle,Washington,98122,,500,Broadway,United States,https://www.linkedin.com/company/housing-diversity/,,,Apartments,,,,,,
Impact Equity,impactequity.net,Peoria,Arizona,85382,,9015,West Union Hills Drive,United States,linkedin.com/company/impact-equity-llc,,Fund,Apartments,,,,,,
LYND Living,lynd.com,,,,,,,,,,,Apartments,,,,,,
OZFund,ozfundinc.com,,,,,,,,,,Fund,"Apartments, Commercial",,,,,,
EPIC Companies,epiccompaniesnd.com,,,,,,,Canada,,,Syndication,"Apartments, Commercial",,,,,,
GVD Development & Construction,gvdconstruction.com,Sulphur Springs,Texas,75482,,,,United States,,,,"Apartments, Construction",,,,,,
Cross Mountain Capital,crossmountaincapital.com,,,,,,,,,,Syndication,"Apartments, Multifamily",,,,,,
Green Forest Capital,greenforestcapital.com,,,,,,,,linkedin.com/company/green-forest-capital,,Syndication,"Apartments, Multifamily",,,,,,
Grubb Properties,grubbproperties.com,Charlotte,North Carolina,28209,,4601,Park Road,United States,linkedin.com/company/grubb-properties,,Fund or Syndication,"Apartments, Multifamily",,,,,,
CFO Systems,cfosystemsllc.com,,,,,,,,linkedin.com/company/cfo-systems-llc,,,"Biotech, Construction, Healthcare, Manufacturing",,,,,,
HomWork,homwork.com,,,,,,,Canada,linkedin.com/company/homwork,,Syndication,Co Working Space,,,,,,
Westwood Financial,westfin.com,,,,,,,,,,Syndication,Commercial,,,,,,
WindMass Capital,windmasscapital.com,Dallas,Texas,75201,,100,Crescent Court,United States,linkedin.com/company/windmass-capital,,Syndication,Commercial,,,,,,
Bearing Point Properties,bearingpointproperties.com,,,,,,,,,,Syndication,Commercial,,,,,,
The Bendetti Company,bendetti.com,,,,,,,,linkedin.com/company/the-bendetti-comapny,650000000,Syndication,Commercial,,,,,,
Blue Elm Investments,blueelminvestments.com,,,,,,,,linkedin.com/company/blue-elm-investments,,Syndication,Commercial,,,,,,
CAI Investments,caicap.com,Las Vegas,Nevada,,,,,United States,,,Syndication,Commercial,,,,,,
CBRE Group,cbre.com,Dallas,Texas,75201,,2100,McKinney Avenue,United States,linkedin.com/company/cbre,,Syndication,Commercial,,,,,,
Red Oak Capital Holdings,redoakcapitalholdings.com,,,,,,,,,,Fund or Syndication,Commercial,,,,,,
CentrePoint Properties,cpointproperties.com,Denver,Colorado,80203,,789,Sherman Street,United States,linkedin.com/company/centre-point-properties,,Syndication,Commercial,,,,,,
Creative Realty Partners,creativerealtypartners.com,Burbank,California,91505,300,3500,West Olive Avenue,United States,,,Syndication,Commercial,,,,,,
CrowdFunz Holding,crowdfunz.com,Great Neck,New York,11021,,60,Cuttermill Road,United States,linkedin.com/company/crowdfunz,,Fund,Commercial,,,,,,
DSC Partners,dscpartners.com,,,,,,,,,3000000000,Syndication,Commercial,,,,,,
Encore Enterprises,encore.bz,Plano,Texas,75024,,6900,Dallas Parkway,United States,https://www.linkedin.com/company/encore-enterprises/,,Syndication,Commercial,,,,,,
Gold & World Class Investments Corporation,goldworldclassinvestments.com,,,,,,,,,,,Commercial,,,,,,
Exponential Equity,exponential-equity.com,,,,,,,Canada,linkedin.com/company/exponential-equity,,Syndication,Commercial,,,,,,
Feldman Equities,feldmanequities.com,St. Petersburg,Florida,33701,,360,Central Avenue,United States,linkedin.com/company/feldman-equities-llc,,Syndication,Commercial,,,,,,
FivePoint Capital Management,fivepointcm.com,Miami,Florida,33130,,80,Southwest 8th Street,United States,https://www.linkedin.com/company/fivepoint-capital-management/,,Syndication,Commercial,,,,,,
Flywheel Capital,flywheelcap.com,Denver,Colorado,80209,,724,South Pearl Street,United States,linkedin.com/company/flywheel-capital-llc,,Syndication,Commercial,,,,,,
Ford Investment Properties,fordinvestmentproperties.com,Stuart,Florida,,,,,United States,,,Syndication,Commercial,,,,,,
Four Points,fourpointsllc.com,,,,,,,,linkedin.com/company/fourpointsllc,500000000,Syndication,Commercial,,,,,,
FTW Investments,ftwinvestmentsllc.com,Kansas City,Missouri,64112,,,,United States,linkedin.com/company/ftw-investments,,Syndication,Commercial,,,,,,
GM Property Group,gmproperty.com,Asheville,North Carolina,28801,,28,North Ann Street,United States,linkedin.com/company/g-m-property-group,,,Commercial,,,,,,
Haymakers,haymakers.com,Hyde Park,New York,12538,,,,United States,,,,Commercial,,,,,,
Maker Bros,makerbros.net,,,,,,,,,,,Commercial,,,,,,
Hempel Real Estate,hempelcompanies.com,Minneapolis,Minnesota,55402,,527,South Marquette Avenue,United States,linkedin.com/company/hempel,,,Commercial,,,,,,
High Rise Group,highrise.group,,,,,,,,,,Fund or Syndication,Commercial,,,,,,
Hunt Properties Inc,huntprop.com,,,,,,,,linkedin.com/company/hunt-properties-inc.,2500000000,Syndication,Commercial,,,,,,
Invest Beyond Multifamily,investbeyondmultifamily.com,,,,,,,,,,Syndication,Commercial,,,,,,
JMA Ventures,jmaventuresllc.com,,,,,,,,linkedin.com/company/jma-ventures,2500000000,Syndication,Commercial,,,,,,
Kingsbarn Realty Capital,kingsbarn.com,Las Vegas,Nevada,,,,,United States,linkedin.com/company/kingsbarn,,Fund,Commercial,,,,,,
Keystone National Properties,knpre.com,Jericho,New York,,,,,United States,linkedin.com/company/keystone-national-properties,,Syndication,Commercial,,,,,,
Madison International,madisonint.com,New York,New York,10022,,300,Park Avenue,United States,linkedin.com/company/madison-international-realty,,Fund or Syndication,Commercial,,,,,,
PPR Capital Management,pprcapitalmgmt.com,Berwyn,Pennsylvania,19312,,920,Cassatt Road,United States,linkedin.com/company/pprcapitalmgmt,689000000,Syndication,Commercial,,,,,,
Redfearn Capital,redfearncapital.com,,,,,,,Canada,,550000000,Syndication,Commercial,,,,,,
The Cauble Group,thecaublegroup.com,Nashville,Tennessee,,,,,United States,,,Syndication,Commercial ,,,,,,
The Criterion Fund,thecriterionfund.com,,,,,,,,,,Fund,Commercial ,,,,,,
Nightingale Properties,thenggroup.com,,,,,,,,,,Syndication,Commercial ,,,,,,
US Realty Partners,usrpartners.com,Westlake Village,California,91362,,5743,Corsa Avenue,United States,linkedin.com/company/u-s-realty-partners-inc-,,Syndication,Commercial ,,,,,,
Virtua International Holdings,virtuapartners.com,Scottsdale,Arizona,,,,,United States,linkedin.com/company/virtuapartners,,Syndication,Commercial ,,,,,,
VMD Companies,vmdcompanies.com,,,,,,,Canada,,,Syndication,Commercial ,,,,,,
Time Equities,timeequities.com,New York,New York,10003,,55,5th Avenue,United States,linkedin.com/company/time-equities-inc.,6000000000,Syndication,Commercial & Industrial,,,,,,
Toro Real Estate Partners,tororep.com,,,,,,,,,,Syndication,Commercial & Residential,,,,,,
VRB Capital,vrbcap.com,,,,,,,,,,Syndication,Commercial & Residential,,,,,,
Careventures Capital,careventurescapital.com,,,,,,,,,,Syndication,"Commercial, Apartments",,,,,,
Cherry Street Investments,cherrystreetinvestments.com,,,,,,,Canada,,,Fund,"Commercial, Apartments",,,,,,
SNL Capital Partners,snlcapital.com,,,,,,,,,,Syndication,"Commercial, Entertainment",,,,,,
Suncroft Capital,suncroftcapital.com,,,,,,,,linkedin.com/company/suncroft-capital-llc,,Syndication,"Commercial, Hospitality",,,,,,
First Floor Equity,firstfloorequity.com,Minneapolis,Minnesota,,,,,United States,linkedin.com/company/first-floor-equity,,Syndication,"Commercial, Hybrid Housing",,,,,,
Grander Capital Partners,grandercapital.com,,,,,,,,linkedin.com/company/grander-capital-partners-llc,,Syndication,"Commercial, Industrial",,,,,,
Griffin Partners,griffinpartners.com,,,,,,,,linkedin.com/company/griffinpartners,,Syndication,"Commercial, Industrial",,,,,,
Skyline Pacific Properties,skylinepacific.com,,,,,,,,,,Syndication,"Commercial, Industrial",,,,,,
SmartCap,smartcapgroup.com,Redmond,Washington,,,,,United States,,635000000,Fund,"Commercial, Industrial",,,,,,
Kessinger Hunter,kessingerhunter.com,Kansas City,Missouri,64108,,2600,Grand Boulevard,United States,linkedin.com/company/kessinger-hunter,,,"Commercial, Industrial, Office, Retail",,,,,,
PRES Companies,prescompanies.com,Irvine,California,92612,,19782,Macarthur Boulevard,United States,linkedin.com/company/pres-companies,300000000,Syndication,"Commercial, Industrial, Office, Retail",,,,,,
Innovo Property Group,innovopg.com,,,,,,,,linkedin.com/company/innovo-property-group,3000000000,Syndication,"Commercial, Industrial, Residential, Mixed Use",,,,,,
PACE Loan Group,paceloangroup.com,Eden Prairie,Minnesota,55344,,10050,Crosstown Circle,United States,linkedin.com/company/pace-loan-group,,Syndication,"Commercial, Lending",,,,,,
Northshore Development,nsdpartners.com,Orlando,Florida,32835,,6996,Piazza Grande Avenue,United States,linkedin.com/company/nsd-partners,,Syndication,"Commercial, Management",,,,,,
Parkway Property Investments,pky.com,,,,,,,,linkedin.com/company/parkway-properties,14000000000,Syndication,"Commercial, Management, Retail, Office",,,,,,
JOSS Realty Partners,jrpllc.com,,,,,,,,linkedin.com/company/joss-realty-partners-llc,,Fund,"Commercial, Mixed Use",,,,,,
Bradley Company,bradleyco.com,Indianapolis,Indiana,,,,,United States,,,Syndication,"Commercial, Multifamily",,,,,,
Core Realty Holdings,corerealtyholdings.com,,,,,,,,,,Syndication,"Commercial, Multifamily",,,,,,
Creekstone Companies,creekstonecompanies.com,Houston,Texas,77027,,4545,Post Oak Place Drive,United States,linkedin.com/company/creekstone-companies,,Syndication,"Commercial, Multifamily",,,,,,
Ironton Capital,irontoncapital.com,Denver,Colorado,80222,Suite: 150,2755,South Locust Street,United States,,30000000,Fund,"Commercial, Multifamily",,,,,,
Stryker,strykerprop.com,,,,,,,,,611000000,Syndication,"Commercial, Multifamily",,,,,,
First National Realty Partners,fnrpusa.com,Red Bank,New Jersey,07701,,151,Bodman Place,United States,linkedin.com/company/first-national-realty-partners-llc,2000000000,Syndication,"Commercial",,,,,,
Coughlin and Company,coughlinandcompany.com,,,,,,,Canada,linkedin.com/company/coughlin-and-company-inc,,Syndication,"Commercial, Residential",,,,,,
Cowley Real Estate Partners,cowleyrep.com,,,,,,,,,,Syndication,"Commercial, Residential",,,,,,
The Schueler Group,schuelergroup.com,,,,,,,,linkedin.com/company/henkle-schueler,,,"Commercial, Residential",,,,,,
OKO Group,okogroup.com,,,,,,,,linkedin.com/company/oko-group,,Syndication,"Commercial, Retail, Hospitality, Multifamily",,,,,,
US REO Fund,usreofund.com,Frisco,Texas,,,,,United States,,,Fund,"Commercial, Single Family",,,,,,
Friendwell Group of Companies,friendwell.com,Edison,New Jersey,08817,,2025,Lincoln Highway,United States,linkedin.com/company/friendwell-group-of-companies,,Syndication,"Commercial, Office, Hotels",,,,,,
iCross Capital,icrosscapital.com,,New York,,,,,United States,,,,Condominiums,,,,,,
Eight-Nine King Development,89kdc.com,,,,,,,,,,Syndication,Construction,,,,,,
Empire Building Construction,empireconst.com,,,,,,,,,,Syndication,Construction,,,,,,
Legacy Group Capital,legacyg.com,,,,,,,,linkedin.com/company/legacy-group-capital-llc,,Fund,Construction,,,,,,
Fairbrook Communities,fairbrookcommunities.com,Newport Beach,California,,,,,United States,,,Syndication,"Construction, Apartments",,,,,,
Radonic Corp,radonic-corp.com,,,,,,,,,,Syndication,"Construction, Design",,,,,,
Ascend Equity,roi-bydesign.com,,,,,,,,,,Syndication,"Construction, Design",,,,,,
First Victory,firstvictory.com,,,,,,,,,,,"Construction, Development",,,,,,
New Standard Equities,newstandardequities.com,,,,,,,,,,Syndication,"Construction, Management",,,,,,
Overland Group,overlandcorp.com,Draper,Utah,,,,,United States,,,Syndication,"Construction, Management",,,,,,
Peregrine Group LLC,peregrinegrp.com,,,,,,,Canada,,,Syndication,"Construction, Management",,,,,,
Kefi Spaces,kefispaces.com,,,,,,,,linkedin.com/company/kefispaces,,Syndication,"Co-Warehouse, Office",,,,,,
Arroyo Holdings,arroyoholdings.com,,,,,,,,,,Syndication,"Data Centers, Industrial, Office",,,,,,
Farm Together,farmtogether.com,,,,,,,,,170,Syndication,Farmland,,,,,,
Capitis Real Estate Group,capitisregroup.com,,,,,,,,,,Syndication,Healthcare,,,,,,
"Coaction Group, LLC",coactiongrp.com,,,,,,,Canada,,,Fund,Healthcare,,,,,,
Cypress West Partners,cypresswestpartners.com,Rancho Santa Margarita,California,,,,,United States,,,Syndication,Healthcare,,,,,,
Meridian Veterinary Real Estate,meridianvetre.com,Dallas,Texas,,,,,United States,,,Syndication,Healthcare,,,,,,
Neurocrine Biosciences,neurocrine.com,,,,,,,Canada,,,Syndication,Healthcare,,,,,,
OrbVest,orbvest.com,,,,,,,Seychelles,linkedin.com/company/orbvest,,Syndication,Healthcare,,,,,,
Rendina Healthcare Real Estate,rendina.com,Jupiter,Florida,33458,,661,University Boulevard,United States,linkedin.com/company/rendina-companies,,Syndication,Healthcare,,,,,,
Ridgeline Capital Partners,ridgelinecp.com,Dallas,Texas,,,,,United States,https://www.linkedin.com/company/ridgeline-capital-partners/,,Syndication,Healthcare,,,,,,
2GR Equity,2grequity.com,Grapevine,Texas,76051,,342,South Main Street,United States,linkedin.com/company/2gr-equity-llc,600000000,Syndication,"Healthcare, Hospitality, Storage",,,,,,
Crescent Growth Capital,crescentgrowthcapital.com,New Orleans,Louisiana,70170,,,Saint Charles Avenue,United States,linkedin.com/company/crescent-growth-capital-llc,,Syndication,"Healthcare, Hotels, Retail, Commercial, Mixed Use",,,,,,
Paycor,paycor.com,Norwood,Ohio,45212,,4811,Montgomery Road,United States,linkedin.com/company/paycor,,Syndication,"Healthcare, Manufacturing, Retail",,,,,,
New ERA Partners,neweraptrs.com,Colleyville,Texas,76034,,,,United States,,,Syndication,"Healthcare, Multifamily",,,,,,
AI Fund,aifund.ai,Chagrin Falls,Ohio,44022,,,,United States,linkedin.com/company/aifund,,Fund,"Healthcare, Next Generation Enterprise",,,,,,
Layton Construction,laytonconstruction.com,Sandy,Utah,84070,,9090,Sandy Parkway,United States,linkedin.com/company/layton-construction,,,"Healthcare, Warehouse, Hospitality",,,,,,
BLVD Hospitality,blvdhospitality.com,,,,,,,,linkedin.com/company/blvd-hospitality,,Syndication,Hospitality,,,,,,
Dolphin Capital Partners,dolphincp.com,,,,,,,,,,,Hospitality,,,,,,
DoveHill Capital Management,dovehillcos.com,,,,,,,Canada,,,Syndication,Hospitality,,,,,,
Driftwood,driftwoodhospitality.com,,,,,,,,linkedin.com/company/driftwood-hospitality-management,,Fund,Hospitality,,,,,,
Ephant Group,ephantgroup.com,Knoxville,Tennessee,37912,,5335,Central Avenue Pike,United States,linkedin.com/company/the-ephant-group,,Syndication,Hospitality,,,,,,
Presidio Companies,presidioco.com,,,,,,,,,,Syndication,Hospitality,,,,,,
Range Developments,rangedevelopments.com,,,,,,,,,,Syndication,Hospitality,,,,,,
Nolan Reynolds International,nrinternational.com,,,,,,,,linkedin.com/company/nolanreynoldsinternational,,Syndication,"Hospitality, Commercial, Management",,,,,,
Provident Realty Advisors,providentrealty.net,Dallas,Texas,,,,,United States,,,Syndication,"Hospitality, Industrial, Multifamily, Storage",,,,,,
Wheelock Street Capital,wheelockst.com,Greenwich,Connecticut,,,,,United States,,5800000000,Syndication,"Hospitality, Industrial, Residential land, Retail and Office",,,,,,
Driftwood Capital,driftwoodcapital.com,Coral Gables,Florida,33134,,255,Alhambra Circle,United States,linkedin.com/company/driftwoodcptl,3000000000,Syndication,"Hospitality, Mixed Use",,,,,,
BestGen,bestgen.com,Rapid City,South Dakota,57701,,520,Kansas City Street,United States,linkedin.com/company/bestgenmodular,,Syndication,"Hospitality, Multifamily",,,,,,
Barone Management,baronemanagement.com,,,,,,,,,,,"Hospitality, Multifamily, Office, Industrial",,,,,,
InSite Group,insiteus.com,,,,,,,,linkedin.com/company/insite-group-us,650000000,Syndication,"Hospitality, Residential, Mixed Use",,,,,,
TGC Group,tgcgroup.net,Wichita,Kansas,67202,,322s,South Mosley Street,United States,linkedin.com/company/tgc-development-group,,Syndication,"Hospitality, Multifamily",,,,,,
LCP Group,lcpgroup.com,,,,,,,,linkedin.com/company/lcp-group,,,"Hotel, Multifamily",,,,,,
Amoroso Companies,amoroso-co.com,,,,,,,,linkedin.com/company/amoroso-companies,,Syndication,"Hotel, Multifamily, Office, Retail, Single Family, Storage",,,,,,
Lloyd Jones,lloydjonesllc.com,Miami,Florida,33131,,1001,Brickell Bay Drive,United States,linkedin.com/company/lloyd-jones-llc,1200000000,Syndication,"Hotel, Multifamily, Senior Living",,,,,,
AWH Partners,awhpartners.com,New York,New York,10018,,1040,6th Avenue,United States,linkedin.com/company/awh-partners,,Syndication,Hotels,,,,,,
Excel Group,excelgp.com,,,,,,,,,9500000000,Syndication,Hotels,,,,,,
Gatehouse Capital,gatehousecapital.com,,,,,,,,,,Syndication,Hotels,,,,,,
Legendary Capital,legendarycap.com,Fargo,North Dakota,58103,,1635,43rd Street South,United States,linkedin.com/company/legendary-capital,,,Hotels,,,,,,
Wright Investments,wrightinvestments.com,Memphis,Tennessee,38018,,277,German Oak Drive,United States,linkedin.com/company/wright-investment-properties,,Syndication,Hotels,,,,,,
Gentry Mills Capital,gentrymillscapital.com,Westlake,Texas,76262,,1301,Solana Boulevard,United States,linkedin.com/company/gentry-mills-capital-llc,500000000,Syndication,"Hotels, Commercial",,,,,,
Grass River Property LLC,grassriver.com,,,,,,,,linkedin.com/company/grass-river-property/,,,"Hotels, Commercial",,,,,,
Phoenix Development Partners,phoenixdevelopmentpartners.com,Chicago,Illinois,,,,,United States,https://www.linkedin.com/company/phoenix-development-partners/,,,"Hotels, Commercial",,,,,,
Wrong Way River Lodge & Cabins,wrongwaycampground.com,Asheville,North Carolina,28806,,9,Midnight Drive,United States,,,,"Hotels, Resorts",,,,,,
Yang Capital,yangcapitalgroup.com,,,,,,,,,,Syndication,"Hotels, Resorts",,,,,,
9606 Capital,9606capital.com,,,,,,,,linkedin.com/company/9606-capital,,Syndication,Industrial,,,,,,
Acies Group,aciesre.com,Markham,Illinois,,,,,United States,linkedin.com/company/acies-re,,,Industrial,,,,,,
AmCap,amcap.com,Stamford,Connecticut,,,,,United States,linkedin.com/company/amcap-incorporated,,Syndication,Industrial,,,,,,
Badiee Development,badieedevelopment.com,San Diego,California,92037,,1261,Prospect Street,United States,linkedin.com/company/badiee-development,,Syndication,Industrial,,,,,,
Brass Cap Development,brasscap.com,,,,,,,,,,Syndication,Industrial,,,,,,
Brit Properties,britproperties.com,,,,,,,,,,Syndication,Industrial,,,,,,
Cardinal Industrial,cardindust.com,,,,,,,,,1800000000,Syndication,Industrial,,,,,,
AZ Opportunity Fund,azofund.com,Scottsdale,Arizona,,,,,United States,,,Fund,Industrial,,,,,,
NorthBridge Partners,northbridgecre.com,Boston,Massachusetts,02110,,3,Post Office Square,United States,linkedin.com/company/northbridge-cre-advisors,,Syndication,Industrial,,,,,,
Open Industrial,openindustrial.com,,,,,,,Canada,,,Syndication,Industrial,,,,,,
Wayne Capital Partners,waynecapitalpartners.com,,,,,,,,,,Syndication,Industrial,,,,,,
Westmount Realty Capital,westmountrc.com,Dallas,Texas,75201,,700,North Pearl Street,United States,linkedin.com/company/westmount-realty-capital-llc,,Syndication,Industrial,,,,,,
The Woodmont Company,woodmont.com,Fort Worth,Texas,76107,,2100,West 7th Street,United States,linkedin.com/company/the-woodmont-company,,Syndication,Industrial,,,,,,
Workshop Development,workshopdev.com,,,,,,,,,,Syndication,Industrial,,,,,,
Xebec Holdings,xebecrealty.com,Seal Beach,California,90740,,3010,Old Ranch Parkway,United States,linkedin.com/company/xebec-realty-partners,,Syndication,Industrial,,,,,,
Innovo,innovogroup.com,,,,,,,,linkedin.com/company/theinnovogroup,,Syndication,Industrial,,,,,,
USG Realty Capital,usgre.com,Santa Barbara,California,93101,,,California 1,United States,linkedin.com/company/usg-realty-capital,,Fund,"Industrial, Commercial",,,,,,
Vertical Ventures,verticalventuresllc.com,,,,,,,,,,Syndication,"Industrial, Commercial",,,,,,
Gould Investors,gouldlp.com,Great Neck,New York,11021,,60,Cuttermill Road,United States,linkedin.com/company/gould-investors-l.p.,,Syndication,"Industrial, Land, Mixed Use, Multifamily, Office, Retail",,,,,,
Finial Group,finialgroup.com,Houston,Texas,77055,,8381,Westview Drive,United States,linkedin.com/company/finial-group,,Syndication,"Industrial, Land, Office",,,,,,
Junction Commercial Real Estate,junctionusa.com,,,,,,,Canada,linkedin.com/company/junctioncre,,,"Industrial, Land, Special Purpose",,,,,,
The O Donnell Group,odonnellgroup.com,,,,,,,,,,Syndication,"Industrial, Management",,,,,,
Acquity Realty,acquityrealty.com,,,,,,,,,,,"Industrial, Mixed Use, Office, Residential",,,,,,
Great Lakes Capital,greatlakescapital.com,South Bend,Indiana,46601,,112,West Jefferson Boulevard,United States,linkedin.com/company/great-lakes-capital,905000000,Syndication,"Industrial, Mixed Use, Retail, Multifamily, Hospitality",,,,,,
NorthPoint Development,beyondthecontract.com,Kansas City,Missouri,,,,,United States,https://www.linkedin.com/company/northpoint-development/,,Syndication,"Industrial, Multifamily",,,,,,
Hanson Capital Group,hansonre.com,,,,,,,,linkedin.com/company/hanson-capital,,Fund or Syndication,"Industrial, Multifamily",,,,,,
Novaya Real Estate Ventures,novayaventures.com,,,,,,,,,,Syndication,"Industrial, Multifamily",,,,,,
Humphreys Capital,humphreyscapital.com,Oklahoma City,Oklahoma,73109,,1801,Wheeler Street,United States,linkedin.com/company/humphreyscapital,,Syndication,"Industrial, Multifamily, Office, Retail",,,,,,
Saxum Real Estate,saxumre.com,,,,,,,,,,Fund,"Industrial, Multifamily, Office, Student Housing",,,,,,
Diamond Realty Holdings,diamondrh.com,Chicago,Illinois,,,,,United States,,,Syndication,"Industrial, Office",,,,,,
Griffith Properties,griffithproperties.com,,,,,,,,linkedin.com/company/griffith-properties-llc,,Syndication,"Industrial, Office",,,,,,
Denholtz Properties,denholtz.com,Red Bank,New Jersey,07701,,116,Chestnut Street,United States,linkedin.com/company/denholtz-properties,1600000000,Syndication,"Industrial, Office, Retail, Multifamily",,,,,,
Foxfield Real Estate,foxfieldrealestate.com,,,,,,,,linkedin.com/company/foxfieldllc,1500000000,Syndication,"Industrial, Residential",,,,,,
Adler Development,adlerdev.com,,,,,,,,linkedin.com/company/adler-development,,Syndication,"Industrial, Warehouse, Office Buildings, Apartments",,,,,,
Walton Global,walton.com,,,,,,,,,,Syndication,Land,,,,,,
APG Capital,aacre.com,Raleigh,North Carolina,27607,,1201,Edwards Mill Road,United States,linkedin.com/company/apgcapital,750000000,Syndication,"Land, Commercial",,,,,,
HomeFed Corporation,hfc-ca.com,,,,,,,Canada,,,,"Land, Multifamily, Commercial",,,,,,
Trinity Capital,trinitycapitaladvisors.com,Charlotte,North Carolina,,,,,United States,,,Syndication,"Life Science, Industrial, Office",,,,,,
Alfie,alfieloans.com,Asheville,North Carolina,28801,,362,Depot Street,United States,linkedin.com/company/alfieloans,,Fund,Loans,,,,,,
Equity Estates,equityestatesfund.com,Atlanta,Georgia,,,,,United States,,,Syndication,Luxury Residence,,,,,,
Fairway America,fairwayamerica.com,Tigard,Oregon,97224,,6650,Southwest Redwood Lane,United States,linkedin.com/company/fairway-america,1200000000,Fund or Syndication,Management,,,,,,
GAIN CRE Services,gaincre.com,,,,,,,,,,,Management,,,,,,
Genter Capital Management,gentercapitalmanagement.com,Los Angeles,California,90025,,11601,Wilshire Boulevard,United States,linkedin.com/company/genter-capital-management,,,Management,,,,,,
RNC Genter Capital Management,rncgenter.com,,,,,,,,,,Syndication,Management,,,,,,
Rockstar Capital,rockstar-capital.com,,,,,,,,,,Syndication,Management,,,,,,
Shorepine Wealth Management,shorepinewealth.com,,,,,,,,,,,Management,,,,,,
SilverTree Realty,silvertreerealtyco.com,Columbia,Missouri,,,,,United States,,,Syndication,Management,,,,,,
RealKo Asset Management,realkoam.com,Kansas City,Missouri,64108,,2600,Grand Boulevard,United States,linkedin.com/company/realko-asset-managment,800000000,Syndication,"Management, Commercial",,,,,,
RANE Property Management,ranemgmt.com,Bowmansville,New York,14026,,5360,Genesee Street,United States,linkedin.com/company/rane-property-management-llc,,Syndication,"Management, Construction",,,,,,
The Premier Companies,premierinvestment.com,Bethesda,Maryland,20814,,7910,Woodmont Avenue,United States,linkedin.com/company/the-premier-companies,,Syndication,"Management, Construction, Acquisition",,,,,,
Rising Realty Partners,risingrp.com,,,,,,,,,1570000,Syndication,"Management, Construction, Acquisitions, Development",,,,,,
Rhino Capital Advisors,rhinocapitalllc.com,,,,,,,,,25,Syndication,"Management, Office",,,,,,
savanna,savannafund.com,New York,New York,10022,,430,Park Avenue,United States,linkedin.com/company/savanna-real-estate-fund,,Syndication,"Management, Office, Industrial",,,,,,
Realterm,realterm.com,,,,,,,,,1110000,Syndication,"Management, Storage",,,,,,
Precision Global,precisionglobalcorp.com,Dallas,Texas,75243,,9330,Lyndon B Johnson Freeway,United States,linkedin.com/company/precision-global-corporation,,Syndication,"Management, Storage, Senior housing",,,,,,
COARE Communities,coarecommunities.com,,,,,,,Canada,linkedin.com/company/coare-communities-llc,,,Manufactured Housing,,,,,,
Wavemark Capital,wavemarkcapital.com,,,,,,,,,,Fund,Manufactured Housing,,,,,,
Cook Properties,cookpropertiesny.com,Rochester,New York,14624,,90,Air Park Drive,United States,linkedin.com/company/cookpropertiesny,,Syndication,Manufactured Homes,,,,,,
Real Estate Contacts,realestatecontacts.com,,,,,,,,,,Syndication,Marketing,,,,,,
Block Funds,blockfunds.com,,,,,,,,linkedin.com/company/block-funds,,Fund or Syndication,"Medical Office, Construction",,,,,,
MSquared,buildmsquared.com,New York,New York,10038,,40,Fulton Street,United States,linkedin.com/company/buildmsquared,,Syndication,Mixed Use,,,,,,
Premium Property Trust,burkecox.com,,,,,,,,,,Syndication,Mixed Use,,,,,,
Foulger-Pratt,foulgerpratt.com,Potomac,Maryland,20854,,12435,Park Potomac Avenue,United States,linkedin.com/company/foulgerpratt,,Syndication,"Mixed Use, Commercial, Multifamily",,,,,,
Innovo Development Group,innovodev.com,,,,,,,,linkedin.com/company/innovodev,,Syndication,"Mixed Use, Industrial, Residential",,,,,,
The Latigo Group,latigo-group.com,,,,,,,,linkedin.com/company/the-latigo-group,,Syndication,"Mixed Use, Multifamily",,,,,,
BV Capital,bvcapitaltx.com,,,,,,,Canada,,360000000,Fund or Syndication,"Mixed Use, Multifamily, Medical Office",,,,,,
MHP Funds,mhpfunds.com,,,,,,,,,,Fund,Mobile Home,,,,,,
Sonos Capital,sonoscapital.com,,,,,,,,,,Syndication,Mobile Home,,,,,,
52TEN,52ten.com,,,,,,,,linkedin.com/company/52ten,,Fund,Mobile Home Parks,,,,,,
Elevation Fund 8,elevationfund.com,,,,,,,,linkedin.com/company/elevationcapitalgroup,,fund ,"Mobile Home, Storage",,,,,,
Aspen Funds,aspenfunds.us,,,,,,,Canada,linkedin.com/company/aspen-funds,300000000,Fund,"Mortgage Notes, Multifamily, Storage, Venture Debt, Industrial",,,,,,
37th Parallel Properties,37parallel.com,Richmond,Virginia,23226,,1801,Bayberry Court,United States,linkedin.com/company/37parallel,1000000000,Fund or Syndication,Multifamily,,,,,,
3D Money,3dmoney.com,Litchfield,Minnesota,55355,,,,United States,linkedin.com/company/3dmoney/,,Syndication,Multifamily,,,,,,
5 Talents Capital,5tcre.com,San Antonio,Texas,78212,,1900,Blanco Road,United States,linkedin.com/company/5talents,150000000,Syndication,Multifamily,,,,,,
American Capital Group,acg.com,Bellevue,Washington,98005,,15,Lake Bellevue Drive,United States,linkedin.com/company/american-capital-group,1500000000,Syndication,Multifamily,,,,,,
Achieve Investment Group,achieveinvestmentgroup.com,Austin,Texas,,,,,United States,linkedin.com/company/jameskandasamy2023/,,Syndication,Multifamily,,,,,,
Alpha Residential,alpharesidential.com,Bridgeville,Pennsylvania,15017,,44,Abele Road,United States,linkedin.com/company/alpharesidential,,Syndication,Multifamily,,,,,,
"Anthology Investments, LLC",anthologyinv.com,,,,,,,Canada,,,Fund or Syndication,Multifamily,,,,,,
APPA Real Estate,apparealestate.com,,,,,,,,linkedin.com/company/appa-real-estate,,Syndication,Multifamily,,,,,,
Arel Capital,arelcapital.com,New York,New York,10022,,540,Madison Avenue,United States,https://www.linkedin.com/company/arel-capital/people/,,,Multifamily,,,,,,
Ashcroft Capital,ashcroftcapital.com,New York,New York,10017,,461,5th Avenue,United States,linkedin.com/company/ashcroft-capital-llc,852000000,Syndication,Multifamily,,,,,,
Ashland Greene Capital,ashlandgreenecapital.com,,,,,,,,https://www.linkedin.com/company/ashland-greene/,1100000000,Syndication,Multifamily,,,,,,
Avid Realty Partners,avidrealtypartners.com,,,,,,,,linkedin.com/company/avidrealtypartners,,Syndication,Multifamily,,,,,,
Ballast Rock,ballastrock.com,,,,,,,,,,,Multifamily,,,,,,
Bam Capital,bamcapgroup.com,,,,,,,,,,Fund or Syndication,Multifamily,,,,,,
Blue Lake Capital,bluelake-capital.com,,,,,,,Canada,,,Fund or Syndication,Multifamily,,,,,,
Bonner Carrington,bonnercarrington.com,Austin,Texas,78746,,901,South MoPac Expressway,United States,linkedin.com/company/bonnercarrington,,Syndication,Multifamily,,,,,,
Box Wilson Equity,boxwilson.com,,,,,,,,linkedin.com/company/box-wilson-equity,,Syndication,Multifamily,,,,,,
Brazos Residential,brazosresidential.com,Dallas,Texas,75230,,5728,Lyndon B Johnson Freeway,United States,linkedin.com/company/brazosresidential,423000000,Syndication,Multifamily,,,,,,
The Brennan Pohle Group,brennanpohle.com,San Diego,California,,,,,United States,,,Syndication,Multifamily,,,,,,
Brick Street Capital,brickstreetcapital.com,,,,,,,,,,Syndication,Multifamily,,,,,,
Bristol Development Group,bristoldevelopment.com,Franklin,Tennessee,37067,,381,Mallory Station Road,United States,linkedin.com/company/bristol-development-group,,Syndication,Multifamily,,,,,,
The BurnBrae Companies,burnbraeco.com,,,,,,,,linkedin.com/company/the-burnbrae-companies,150000000,Syndication,Multifamily,,,,,,
Camino Verde Group,caminoverdegroup.com,,,,,,,,,,Syndication,Multifamily,,,,,,
Capital Square,capitalsq.com,Glen Allen,Virginia,23060,,10900,Nuckols Road,United States,linkedin.com/company/capital-square-realty-advisors,6200000000,Syndication,Multifamily,,,,,,
Cardone Capital,cardonecapital.com,Aventura,Florida,33180,,18851,Northeast 29th Avenue,United States,linkedin.com/company/cardonecapital,,Fund,Multifamily,,,,,,
CF Capital LLC,cfcapllc.com,,,,,,,,,,Syndication,Multifamily,,,,,,
Chandler Residential Management Corp,chanres.com,,,,,,,,,,Syndication,Multifamily,,,,,,
Che Capital LLC,checapitalgroup.com,Chicago,Illinois,,,,,United States,linkedin.com/company/che-capital,,Syndication,Multifamily,,,,,,
Citadel Real Estate Group,citadelgrp.com,,,,,,,,linkedin.com/company/citadel-real-estate-group,325000000,Syndication,Multifamily,,,,,,
CityPads,citypadsre.com,,,,,,,,,600000000,Syndication,Multifamily,,,,,,
Clear Capital,clearcapllc.com,Los Angeles,California,90024,,10866,Wilshire Boulevard,United States,linkedin.com/company/clear-capital-llc,1000000000,Syndication,Multifamily,,,,,,
"Equity Capital Funding Group, LLC",ecfg.us,,,,,,,,,,Syndication,Multifamily,,,,,,
Community Management Group,cmgcharleston.com,,,,,,,,,60,Syndication,Multifamily,,,,,,
Colony Hills Capital,colonyhillscapital.com,,,,,,,,,500000000,Fund or Syndication,Multifamily,,,,,,
Cooper Street Capital,cooperstreetcapital.com,San Francisco,California,94123,,1865,Union Street,United States,linkedin.com/company/cooper-street-capital,400,Syndication,Multifamily,,,,,,
CSRE Group,csregroup.com,,,,,,,,linkedin.com/company/cs-acquisition-group,,Syndication,Multifamily,,,,,,
Dasmen Residential,dasmenresidential.com,Montebello,New York,10901,,400,Rella Boulevard,United States,linkedin.com/company/dasmen-residential,,Syndication,Multifamily,,,,,,
Del American,delamerican.com,,,,,,,,linkedin.com/company/delamerican,,Syndication,Multifamily,,,,,,
Diamond Point Homes,diamondpointhomes.com,Phoenix,Arizona,,,,,United States,,150000000,Syndication,Multifamily,,,,,,
Disrupt Equity,disruptequity.com,Houston,Texas,77077,,1001,South Dairy Ashford Road,United States,linkedin.com/company/disruptequity,800000000,Syndication,Multifamily,,,,,,
Divergent Capital Partners,divergentfund.com,,,,,,,Canada,,,Fund,Multifamily,,,,,,
DiversyFund,diversyfund.com,San Diego,California,92101,,750,B Street,United States,linkedin.com/company/diversyfund,,Fund,Multifamily,,,,,,
DMI Holdings,dixon-adams.com,,,,,,,,,,Syndication,Multifamily,,,,,,
Domain Communities,domaincommunities.com,,,,,,,,,,Syndication,Multifamily,,,,,,
Dual City Investments,dualcityinvestments.com,,,,,,,,,,Fund,Multifamily,,,,,,
Gray Duck Capital,grayduckcapital.com,,,,,,,Canada,,,Syndication,Multifamily,,,,,,
Element Property,elementresidential.com,Los Angeles,California,90049,,11999,San Vicente Boulevard,United States,linkedin.com/company/element-property-company,,Syndication,Multifamily,,,,,,
Elevate CIG,elevatecig.com,Dallas,Texas,,,,,United States,linkedin.com/company/elevate-cig,500000000,Syndication,Multifamily,,,,,,
Empire Property Concepts,empirepropertyconcepts.co.uk,,,,,,,,linkedin.com/company/empire-property-c,,,Multifamily,,,,,,
Equity Multifamily,equitymultifamily.com,,,,,,,,,,Fund,Multifamily,,,,,,
Essential Element Capital,essentialelementcapital.com,Pasadena,California,,,,,United States,,,Syndication,Multifamily,,,,,,
Farran Realty Partners,farranco.com,Missoula,Montana,59802,,101,East Main Street,United States,linkedin.com/company/farran-realty-partners,,Syndication,Multifamily,,,,,,
Freedom Venture Investments,freedomventure.com,Danvers,Massachusetts,01923,,5,Elm Street,United States,linkedin.com/company/freedom-venture-investments,346000000,Syndication,Multifamily,,,,,,
Freestyle Capital Group,freestylecapitalgroup.com,,,,,,,,,,Fund,Multifamily,,,,,,
Frontline Holdings,frontlineholdings.co,,,,,,,,,,Syndication,Multifamily,,,,,,
Fair Winds Capital Investments,fwcinvestments.com,,,,,,,,linkedin.com/company/fair-winds-capital-investments,,Fund or Syndication,Multifamily,,,,,,
Gaia Real Estate,gaiare.com,New York,New York,10019,,152,West 57th Street,United States,linkedin.com/company/gaia-real-estate-investments,,Syndication,Multifamily,,,,,,
"Gardner Capital, Inc.",gardnercapital.com,,,,,,,Canada,linkedin.com/company/gardner-capital-inc,,Fund,Multifamily,,,,,,
Gimme Shelter Equity,gimmeshelterequity.com,Springdale,Arkansas,,,,,United States,,215000000,Syndication,Multifamily,,,,,,
Greenleaf Management,gogreenleafmanagement.com,Norcross,Georgia,30071,,3081,Holcomb Bridge Road,United States,linkedin.com/company/greenleaf-management-llc,750,Syndication,Multifamily,,,,,,
Golden Bear Equities,goldenbearequities.com,Newport Beach,California,,,,,United States,linkedin.com/company/golden-bear-equities-llc,,Syndication,Multifamily,,,,,,
Good Bull Investments,goodbullinvestments.com,The Woodlands,Texas,,,,,United States,,,Syndication,Multifamily,,,,,,
Goodegg Investments,goodegginvestments.com,San Francisco,California,94133,,18,Bartol Street,United States,linkedin.com/company/goodegginvestments,125000000,Syndication,Multifamily,,,,,,
Granite Towers Equity Group,granitetowersequitygroup.com,Minneapolis,Minnesota,,,,,United States,,,Syndication,Multifamily,,,,,,
Gray Capital,graycapitalllc.com,Indianapolis,Indiana,46201,,1411,Roosevelt Avenue,United States,linkedin.com/company/graycapitalllc,775000000,Syndication,Multifamily,,,,,,
RelEquity Enterprises,relequity.com,,,,,,,,,,Syndication,Multifamily,,,,,,
Dividenz,dividenz.com,,,,,,,,linkedin.com/company/dividenz,,Fund or Syndication,Multifamily,,,,,,
Gruszynski Capital,gruszynskicapital.com,Trophy Club,Texas,76262,,,,United States,linkedin.com/company/gruszynski-capital,,Syndication,Multifamily,,,,,,
The GSH Group,gshrealestate.com,Clawson,Michigan,48017,,340,South Main Street,United States,linkedin.com/company/gshrealestate,1000000000,Syndication,Multifamily,,,,,,
Guardian Advisory,guardian-advisory.com,,,,,,,,linkedin.com/company/guardian-advisory-llc,,Fund,Multifamily,,,,,,
Guefen Development,guefen.com,Houston,Texas,77027,,3800,Southwest Freeway,United States,linkedin.com/company/guefen-development,1000000000,Syndication,Multifamily,,,,,,
GVA Property Management,gvamgt.com,,,,,,,,linkedin.com/company/gva-property-management,,Syndication,Multifamily,,,,,,
GWR Equities,gwrequities.com,Houston,Texas,77027,,1800,West Loop South,United States,linkedin.com/company/gwrequities,,Syndication,Multifamily,,,,,,
Hazel Equity,hazelequity.com,,,,,,,,linkedin.com/company/hazelequity,,Syndication,Multifamily,,,,,,
Honeybricks,honeybricks.com,San Francisco,California,94109,,,,United States,linkedin.com/company/honeybricks,,Syndication,Multifamily,,,,,,
Cornerstone  Commercial Investments,cornerstonecommercialinvestments.com,Coeur d Alene,Idaho,83814,Suite 201,1875,North Lakewood Drive,United States,https://www.linkedin.com/company/cornerstone-commercial-investments-inc/,,Syndication,Multifamily,,,,,,
Hudson Investing,hudsoninvesting.com,Carmel,Indiana,46032,,38,West Main Street,United States,https://www.linkedin.com/company/hudsoninvesting/,,,Multifamily,,,,,,
Huber Equity Group,huberequitygroup.com,Columbus,Ohio,43206,,523,South 4th Street,United States,linkedin.com/company/huber-equity-group,,Syndication,Multifamily,,,,,,
Investors Management Group,imgre.com,Los Angeles,California,,,,,United States,linkedin.com/company/investors-management-group,600000000,Syndication,Multifamily,,,,,,
Aeon Partners,investaeon.com,San Diego,California,,,,,United States,linkedin.com/company/aeon-one,,Syndication,Multifamily,,,,,,
Dynasty Investment Partners,investdynasty.com,Detroit,Michigan,,,,,United States,linkedin.com/company/dynasty-investment-partners,22,Syndication,Multifamily,,,,,,
Safehold,safeholdinc.com,,,,,,,,,,,Multifamily,,,,,,
JARS Realty Partners,jarsrealtypartners.com,,,,,,,,,30000000,Syndication,Multifamily,,,,,,
JFH Capital,jfhcapital.com,La Porte,Indiana,46350,,,,United States,,,Syndication,Multifamily,,,,,,
Keener Investments,keenerinvest.com,,,,,,,,linkedin.com/company/keener-investments-llc,,Syndication,Multifamily,,,,,,
Knightvest Capital,knightvest.com,,,,,,,Canada,linkedin.com/company/knightvest-residential,,Syndication,Multifamily,,,,,,
Lark Capital Group,larkcapital.com,,,,,,,,,,Syndication,Multifamily,,,,,,
LeavenWealth,leavenwealth.com,Omaha,Nebraska,68131,,117,South 25th Street,United States,linkedin.com/company/leavenwealth,228000000,Syndication,Multifamily,,,,,,
Leone Real Estate Partners,leonerepartners.com,New York,New York,,,,,United States,linkedin.com/company/leone-real-estate-partners,,Syndication,Multifamily,,,,,,
Living Residential,livingresi.com,Lakewood,New Jersey,08701,,36,Airport Road,United States,linkedin.com/company/livingresidential,,,Multifamily,,,,,,
LMDG,lmdg.net,HUNTINGTN BCH,California,92605,,,,United States,linkedin.com/company/lujan-merriman-development-group-llc,,Syndication,Multifamily,,,,,,
Luxe Capital,luxe-cap.com,,,,,,,,,,Fund or Syndication,Multifamily,,,,,,
Magma Equities,magmaequities.com,,,,,,,,,42000000,Syndication,Multifamily,,,,,,
MarketSpace Capital,marketspace.capital,Houston,Texas,77074,,9100,Southwest Freeway,United States,linkedin.com/company/marketspace-capital,354,Syndication,Multifamily,,,,,,
Mesos Capital,mesoscapital.com,,,,,,,,,250000000,Syndication,Multifamily,,,,,,
Metis Legacy,metislegacy.com,Irvine,California,,,,,United States,,,Syndication,Multifamily,,,,,,
Multifamily Investment Club,mficlub.com,Salt Lake City,Utah,84121,,6550,Millrock Drive,United States,,,Syndication,Multifamily,,,,,,
Middleburg Communities,middleburgcommunities.com,Vienna,Virginia,22182,,1921,Gallows Road,United States,linkedin.com/company/middleburg-communities,,Syndication,Multifamily,,,,,,
Mission Peak Capital,missionpeakcapital.com,Kansas City,Missouri,64108,,1908,Main Street,United States,linkedin.com/company/mission-peak-capital,,Syndication,Multifamily,,,,,,
MLG Capital,mlgcapital.com,Brookfield,Wisconsin,53005,,13400,Bishops Lane,United States,linkedin.com/company/mlg-capital,,Fund,Multifamily,,,,,,
Montlake Residential,montlakere.com,El Segundo,California,90245,,,,United States,,215,Syndication,Multifamily,,,,,,
Mortar Group,mortargroup.com,,New York,11211,,346,Metropolitan Avenue,United States,linkedin.com/company/mortar-arch-dev,,Syndication,Multifamily,,,,,,
The Texas Real Estate Investment Center,mrtxre.com,Houston,Texas,,,,,United States,,,Syndication,Multifamily,,,,,,
Multi-Family Monopoly,multifamilymonopoly.com,McKinney,Texas,,,,,United States,https://www.linkedin.com/company/multifamily-monopoly/,,Syndication,Multifamily,,,,,,
MVP Equities,mvpequities.com,,,,,,,,,,Syndication,Multifamily,,,,,,
nada.,nada.co,Dallas,Texas,75204,,2512,Boll Street,United States,linkedin.com/company/hellonada,,Fund,Multifamily,,,,,,
New City Homes,newcityohio.com,Columbus,Ohio,43222,,975,West Broad Street,United States,linkedin.com/company/newcityhomes,,Syndication,Multifamily,,,,,,
New Sight Capital,newsightcapital.com,Virginia Beach,Virginia,23456,,2733,Robert Monette Lane,United States,linkedin.com/company/new-sight-capital-llc,,Syndication,Multifamily,,,,,,
Nitya Capital,nityacapital.com,Houston,Texas,,,,,United States,,3000000000,Syndication,Multifamily,,,,,,
Northwest Commercial Real Estate Investments,nwcrei.com,Seattle,Washington,,,,,United States,linkedin.com/company/nwcrei,,,Multifamily,,,,,,
Northwest Sustainable Properties,nws-properties.com,Bellevue,Idaho,,,,,United States,https://www.linkedin.com/company/northwest-sustianable-properties-llc/,,Syndication,Multifamily,,,,,,
One Real Estate Investment,onerealestateinvestment.com,,,,,,,,,"
1500000000",Syndication,Multifamily,,,,,,
Origin Investments,origininvestments.com,Chicago,Illinois,,,,,United States,,2000000000,Fund,Multifamily,,,,,,
Pacific Sands,pacificsandsfunds.com,Irvine,California,92606,,60,Corporate Park,United States,linkedin.com/company/pacific-sands-funds,,Fund,Multifamily,,,,,,
LeavenWealth Capital LLC,parkaveinvesting.com,,,,,,,Canada,,228000000,Syndication,Multifamily,,,,,,
Pathfinder Partners,pathfinderfunds.com,San Diego,California,92037,,4225,Executive Square,United States,linkedin.com/company/pathfinderpartners,,Syndication,Multifamily,,,,,,
PEM Real Estate Group,pemreg.com,Scottsdale,Arizona,85260,,13835,North Northsight Boulevard,United States,linkedin.com/company/pem-real-estate-group,,Syndication,Multifamily,,,,,,
Penn Capital,penncapitalgroup.com,Wayne,Pennsylvania,19087,,575,Swedesford Road,United States,linkedin.com/company/penn-capital,180000000,Syndication,Multifamily,,,,,,
Peoples Capital Group,peoplescapitalgroup.com,Cavendish,Vermont,,,,,United States,,,Fund,Multifamily,,,,,,
Presario Ventures,presarioventures.com,,,,,,,Canada,,,Syndication,Multifamily,,,,,,
Prime Capital Investments,primemgnt.com,,,,,,,,,,Syndication,Multifamily,,,,,,
PRISM,prismmf.com,Toronto,Ontario,M6B 3A7,,2828,Bathurst Street,Canada,linkedin.com/company/prism-multifamily-group-inc,,Syndication,Multifamily,,,,,,
RealtyNet Group,realtynetgroup.com,,,,,,,,,,Fund,Multifamily,,,,,,
Redbrick,redbricklmd.com,Washington,District of Columbia,20006,,1616,H Street Northwest,United States,linkedin.com/company/redbrick-lmd,2500000,Syndication,Multifamily,,,,,,
RedHill Realty,redhill.com,,,,,,,,,,Syndication,Multifamily,,,,,,
Strictly Commercial,strictlycommercialusa.com,Hooksett,New Hampshire,,,,,United States,linkedin.com/company/strictly-commercial-llc,,Syndication,Multifamily,,,,,,
RingRoad Partners,ringroadpartners.com,New York,New York,10019,,3,Columbus Circle,United States,linkedin.com/company/ringroad-partners-llc,,Syndication,Multifamily,,,,,,
Rook Capital,rook.capital,,,,,,,,,,Syndication,Multifamily,,,,,,
Round Box Equity,roundboxequity.com,,,,,,,,,,Syndication,Multifamily,,,,,,
S2 Capital,s2cp.com,,,,,,,,,,Fund,Multifamily,,,,,,
Six Peak Capital,sixpeakcapital.com,New York,New York,10003,,215,Park Avenue South,United States,linkedin.com/company/sixpeakcapital,,Syndication,Multifamily,,,,,,
Skyrise Equity,skyriseequitygroup.com,,,,,,,,,,Syndication,Multifamily,,,,,,
Smartland,smartland.com,Miami,Florida,33131,,1221,Brickell Avenue,United States,linkedin.com/company/smartland-ohio,,Syndication,Multifamily,,,,,,
SPI Advisory,spiadvisory.com,Dallas,Texas,,,,,United States,,,Syndication,Multifamily,,,,,,
Spur Equity,spurequity.com,,,,,,,,,,Syndication,Multifamily,,,,,,
Sterling Real Estate Partners,sterling-partners.com,Scottsdale,Arizona,85251,,7114,East Stetson Drive,United States,linkedin.com/company/sterling-realestate-partners,,Syndication,Multifamily,,,,,,
Streamline Capital Group,streamlinecapitalgroup.com,,,,,,,,linkedin.com/company/streamline-capital-group,,Syndication,Multifamily,,,,,,
Sunrise Multifamily,sunrisemultifamily.com,,,,,,,Canada,linkedin.com/company/sunrise-multifamily,15,Syndication,Multifamily,,,,,,
Texsun Holdings,texsunholdings.com,Dallas,Texas,75206,,,,United States,linkedin.com/company/texsun-holdings,,Syndication,Multifamily,,,,,,
TFMS Holdings,tfms.holdings,,,,,,,,linkedin.com/company/tfms-holdings,300,Fund,Multifamily,,,,,,
The Annex Group,theannexgrp.com,,,,,,,,,,Syndication,Multifamily,,,,,,
The BoaVida Group,theboavidagroup.com,,,,,,,,,1500,Fund,Multifamily,,,,,,
The Leaf Group,theleafgroup.com,,,,,,,,,,Syndication,Multifamily,,,,,,
LuxView Properties,theluxview.com,,,,,,,,,,Syndication,Multifamily,,,,,,
Think Outside the Stocks,thinkoutsidethestocks.com,,,,,,,,,170000000,Syndication,Multifamily,,,,,,
The Preiss Company,tpco.com,Raleigh,North Carolina,27605,,1700,Hillsborough Street,United States,linkedin.com/company/the-preiss-company,,Syndication,Multifamily,,,,,,
Triad Real Estate Partners,triadrepartners.com,,,,,,,,,,Syndication,Multifamily,,,,,,
TriArc Real Estate Partners,triarcrep.com,Houston,Texas,,,,,United States,linkedin.com/company/triarcrep,150000000,Syndication,Multifamily,,,,,,
Trident Multifamily,tridentmultifamily.com,,,,,,,Canada,,125000000,Syndication,Multifamily,,,,,,
TTI Capital,tticapital.com,Centreville,Virginia,,,,,United States,,,Syndication,Multifamily,,,,,,
Tusk Equity Partners,tuskep.com,,,,,,,,,,Syndication,Multifamily,,,,,,
Tuson Properties,tusonproperties.com,,,,,,,,linkedin.com/company/tuson-properties-llc,,Syndication,Multifamily,,,,,,
The UIP Companies,urbaninvestmentpartners.com,Washington,District of Columbia,,,,,United States,linkedin.com/company/uipcompanies,1200,Syndication,Multifamily,,,,,,
Upside Capital,upsidecapitalgroup.com,,,,,,,,linkedin.com/company/upside-capital-llc,50000000,Syndication,Multifamily,,,,,,
Urbanist,urbanistusa.com,Houston,Texas,77002,,2007,Commerce Street,United States,linkedin.com/company/urbanist-usa,,Syndication,Multifamily,,,,,,
URBN PHX,urbnphx.com,,,,,,,,,500000000,Syndication,Multifamily,,,,,,
Valiance Capital,valiancecap.com,,,,,,,,,,Syndication,Multifamily,,,,,,
Valkere Investment Group,valkeregroup.com,Phoenix,Arizona,85032,,3317,East Bell Road,United States,linkedin.com/company/valkere-investment-group,,Syndication,Multifamily,,,,,,
Valorem Ventures,valorem-ventures.com,,,,,,,,,,Syndication,Multifamily,,,,,,
Vertical Street Ventures,verticalstreetventures.com,Phoenix,Arizona,,,,,United States,linkedin.com/company/vertical-street-ventures,,Fund,Multifamily,,,,,,
Viking Capital,vikingcapllc.com,,,,,,,,,718,Syndication,Multifamily,,,,,,
Vive Funds,vivefunds.com,,,,,,,,linkedin.com/company/vive-funds,,Fund,Multifamily,,,,,,
VonFinch Capital,vonfinch.com,Denver,Colorado,,,,,United States,linkedin.com/company/vonfinch-capital,,Fund,Multifamily,,,,,,
Waahe Capital,waahecapital.com,San Francisco,California,,,,,United States,linkedin.com/company/waahe-capital,,Fund,Multifamily,,,,,,
Westplan Investors,westplan.com,Atlanta,Georgia,,,,,United States,,,Syndication,Multifamily,,,,,,
WhiteHaven,whitehaven.com,Phoenix,Arizona,85018,,4455,East Camelback Road,United States,linkedin.com/company/whitehaven,,Syndication,Multifamily,,,,,,
Wilkinson Corporation,wilkinsoncorporation.com,Yakima,Washington,,,,,United States,,,Syndication,Multifamily,,,,,,
Wiseman Capital,wisemancapitalgroup.com,,,,,,,,,,Syndication,Multifamily,,,,,,
Worcester Investments,worcesterinvestments.com,,,,,,,Canada,,500,Fund,Multifamily,,,,,,
Boardwalk Wealth,boardwalkwealth.com,,,,,,,Canada,linkedin.com/company/boardwalkwealth,,Fund or Syndication,Multifamily,,,,,,
"Kendu-Bay Properties, LLC",kendubayproperties.com,,,,,,,Canada,linkedin.com/company/kendubayproperties,320000000,Syndication,Multifamily,,,,,,
Exponential Property Group,exponentialpropertygroup.com,,,,,,,United States,linkedin.com/company/exponential-property-group-us,634000000,Syndication,Multifamily,,,,,,
Yankee Capital,yankee-capital.com,Lynnfield,Massachusetts,,,,,United States,,,Syndication,Multifamily,,,,,,
Value Add Partners,yourvap.net,Grandview,Texas,76050,,900,East Criner Street,United States,,,Syndication,Multifamily,,,,,,
Zevulon Capital,zevcap.com,Sandy Springs,Georgia,30328,,750,Hammond Drive,United States,linkedin.com/company/zevulon-capital,,Syndication,Multifamily,,,,,,
Break of Day LLC,breakofdaycapital.com,Manhattan Beach,California,90266,355,2711,North Sepulveda Boulevard,United States,linkedin.com/company/break-of-day-capital,250000000,Syndication,Multifamily,,,,,,
Alder Development Group,alderdevelopment.com,,,,,,,,,,Syndication,Multifamily,,,,,,
Allied Development,allieddev.com,,,,,,,,linkedin.com/company/allieddevelopment,,Syndication,Multifamily,,,,,,
Citadel Group,citadel.com,,,,,,,,linkedin.com/company/citadel-llc,400,Syndication,Multifamily,,,,,,
Dhunna Capital,dhunnacapital.com,,,,,,,,linkedin.com/company/dhunna-capital,,Syndication,Multifamily,,,,,,
Niche Holdings,nicheholds.com,,,,,,,,,,Syndication,Multifamily,,,,,,
OW Communities - Michael Marano,onewallcommunities.com,,,,,,,,linkedin.com/company/onewallcommunities,,Syndication,Multifamily,,,,,,
Quantum Capital,quantumcapitalinc.com,,,,,,,,,,Syndication,Multifamily,,,,,,
Bear Peak Capital,bearpeakcapital.com,Chicago,Illinois,60647,,1658,North Milwaukee Avenue,United States,linkedin.com/company/bearpeakcapital,,Syndication,"Multifamily, Apartments",,,,,,
The Dinerstein Companies,dinersteincos.com,Houston,Texas,,,,,United States,https://www.linkedin.com/company/the-dinerstein-companies/,3500000000,Syndication,"Multifamily, Apartments",,,,,,
Hampshire.Capital,hampshire.capital,,,,,,,,,,Syndication,"Multifamily, Apartments",,,,,,
Blackfish Capital,blackfishcapital.us,Seattle,Washington,,,,,United States,,,Syndication,"Multifamily, Commercial",,,,,,
Carter Exchange,carterfunds.com,Tampa,Florida,33609,,4890,West Kennedy Boulevard,United States,linkedin.com/company/carter-funds,3000000000,Fund,"Multifamily, Commercial",,,,,,
Castle Lanterra,castlelanterra.com,Suffern,New York,10901,,1,Executive Boulevard,United States,linkedin.com/company/castle-lanterra-properties-llc,,Syndication,"Multifamily, Commercial",,,,,,
"Cabot, Cabot, & Forbes",ccfne.com,,,,,,,,,,,"Multifamily, Commercial",,,,,,
Cypress Equity Investments,cypressequity.com,Los Angeles,California,90025,,12121,Wilshire Boulevard,United States,linkedin.com/company/cypress-equity-investments,,Syndication,"Multifamily, Commercial",,,,,,
Grace Construction Company,graceconstructioncompany.com,,,,,,,,,,Syndication,"Multifamily, Commercial",,,,,,
Haverkamp Properties,haverkamp-properties.com,Ankeny,Iowa,50023,,1351,Southwest Prairie Trail Parkway,United States,linkedin.com/company/haverkamp-properties,,,"Multifamily, Commercial",,,,,,
National Asset Services,nasassets.com,,,,,,,Canada,linkedin.com/company/national-assets-services,,Syndication,"Multifamily, Commercial",,,,,,
Neighborhood Development,neighborhooddevelopment.com,Washington,District of Columbia,20010,,3232,Georgia Avenue Northwest,United States,linkedin.com/company/neighborhood-development-company,,Syndication,"Multifamily, Commercial",,,,,,
Peakview Investments,peakviewinvestments.com,,,,,,,,linkedin.com/company/peakview-investments,,Syndication,"Multifamily, Commercial",,,,,,
Pearlmark,pearlmark.com,Chicago,Illinois,,,,,United States,,,Syndication,"Multifamily, Commercial",,,,,,
The Prime Group,primegroupinc.com,,,,,,,,,,Syndication,"Multifamily, Commercial",,,,,,
"Real Estate Acquisitions USA, Corp.",realestateacq.com,,,,,,,Canada,,,Syndication,"Multifamily, Commercial",,,,,,
REEN USA,reenusa.com,Hooksett,New Hampshire,03106,,23,Barberry Street,United States,,,Syndication,"Multifamily, Commercial",,,,,,
Regent Equity Inc,regentequity.net,Miami,Florida,,,,,United States,,,Syndication,"Multifamily, Commercial",,,,,,
RightQuest,rightquestllc.com,,,,,,,,,,Syndication,"Multifamily, Commercial",,,,,,
Rise48 Equity,rise48equity.com,,,,,,,Canada,,45,Syndication,"Multifamily, Commercial",,,,,,
Shopoff Realty Investments,shopoff.com,Irvine,California,92614,,2,Park Plaza,United States,linkedin.com/company/shopoffrealtyinvestments,,Fund,"Multifamily, Commercial",,,,,,
Sparklight Capital,sparklightcapital.com,,,,,,,,,10000000,Syndication,"Multifamily, Commercial",,,,,,
StarPoint Properties,starpointproperties.com,,,,,,,,,,Fund,"Multifamily, Commercial",,,,,,
Stonemark Housing Partners,stonemarkhp.com,,,,,,,,,1900,Syndication,"Multifamily, Commercial",,,,,,
Synergetic Investment Group,synergeticig.com,,,,,,,,,,Syndication,"Multifamily, Commercial",,,,,,
Terra Group,terragroup.com,Miami,Florida,,,,,United States,,,Syndication,"Multifamily, Commercial",,,,,,
Tesseract Capital Group,tesseractcapitalgroup.com,San Francisco,California,94114,,2191,Market Street,United States,linkedin.com/company/tesseract-capital-group,,Syndication,"Multifamily, Commercial",,,,,,
The Ardent Companies,theardentcompanies.com,Atlanta,Georgia,30305,,3565,Piedmont Road Northeast,United States,linkedin.com/company/the-ardent-companies,,Syndication,"Multifamily, Commercial",,,,,,
The Feldman Companies,thefeldmancompanies.com,,,,,,,,,,Syndication,"Multifamily, Commercial",,,,,,
The Kor Group,thekorgroup.com,Los Angeles,California,90291,,73,Market Street,United States,linkedin.com/company/the-kor-group,,Syndication,"Multifamily, Commercial",,,,,,
Unison Realty Partners,unisonrealtypartners.com,Boston,Massachusetts,02115,,177,Huntington Avenue,United States,linkedin.com/company/unison-realty-partners,,Syndication,"Multifamily, Commercial",,,,,,
Southcorp Group,southcorpusa.com,Columbus,Georgia,,,,,United States,,,Syndication,"Multifamily, Commercial, Construction",,,,,,
Everest Group of Companies,everestgroup.ca,,,,,,,,linkedin.com/company/everest-development-group-inc-,,Syndication,"Multifamily, Commercial, Hospitality",,,,,,
TF Management Group,tempofunding.com,,New York,11229,,2167,East 21st Street,United States,linkedin.com/company/tempo-funding-llc,,Fund or Syndication,"Multifamily, Commercial, Hospitality, Storage",,,,,,
Sterling Bay,sterlingbay.com,,,,,,,,,20000000000,Syndication,"Multifamily, Commercial, Industrial",,,,,,
Premier Properties,ppam.net,,,,,,,,,,Syndication,"Multifamily, Commercial, Management",,,,,,
Rilea Group,rileagroup.com,,,,,,,,,,Syndication,"Multifamily, Commercial, Office",,,,,,
The Carr Companies,thecarrcompanies.com,Washington,District of Columbia,20004,200,1455,Pennsylvania Avenue Northwest,United States,https://www.linkedin.com/company/carr-companies,180000000,Fund,"Multifamily, Commercial, Office",,,,,,
Haverkamp Group,haverkampgroup.com,,,,,,,,linkedin.com/company/haverkamp-properties,,Fund,"Multifamily, Commercial, Residential",,,,,,
UrbanStreet Group,urbanstreetgroup.com,,,,,,,,,,Syndication,"Multifamily, Commercial, Retail",,,,,,
PassiveInvesting.com,passiveinvesting.com,Irmo,South Carolina,,,,,United States,,1400,Fund,"Multifamily, Commercial, Storage",,,,,,
Wellings Capital,wellingscapital.com,Forest,Virginia,24551,,14805,Forest Road,United States,linkedin.com/company/wellings-capital-llc,500,Fund,"Multifamily, Commercial, Storage",,,,,,
Interwest Capital,interwestcapital.com,San Diego,California,92037,,4275,Executive Square,United States,linkedin.com/company/interwest-capital,2160000000,Syndication,"Multifamily, Development, Hospitality",,,,,,
ESI Ventures,esiventures.com,Los Angeles,California,91406,,7801,Hayvenhurst Avenue,United States,linkedin.com/company/esiventures,,Syndication,"Multifamily, Hospitality, Office",,,,,,
Six Four Asset Management,sixfourassetmanagement.com,,,,,,,,,,Syndication,"Multifamily, Hospitality",,,,,,
NHK Capital Partners,nhkcapitalpartners.com,Dallas,Texas,,,,,United States,linkedin.com/company/nhk-capital-partners,,Syndication,"Multifamily, Hospitality, Commercial",,,,,,
Property Markets Group,propertymg.com,,,,,,,,,10000000000,Syndication,"Multifamily, Hospitality, Commercial",,,,,,
Regent Partners,regentpartners.com,Atlanta,Georgia,30326,,3344,Peachtree Road Northeast,United States,linkedin.com/company/regent-partners,,Syndication,"Multifamily, Hospitality, Management",,,,,,
RREAF Holdings,rreaf.com,Dallas,Texas,75201,,1909,Woodall Rodgers Freeway,United States,linkedin.com/company/rreafholdings,,Syndication,"Multifamily, Hospitality, Management",,,,,,
Realty Capital Partners,rcpinvestments.com,,,,,,,,linkedin.com/company/realty-capital-partners,,Syndication,"Multifamily, Hospitality, Office, Industrial",,,,,,
Paradyme Investments,paradymecompanies.com,,,,,,,,,,Syndication,"Multifamily, Hospitality, Storage",,,,,,
Nestfund,nestfund.io,,,,,,,,,,Fund,"Multifamily, Hospitality, Storage, Senior Living",,,,,,
North Park Ventures,northparkventures.com,,,,,,,Canada,,400000000,Syndication,"Multifamily, Industrial",,,,,,
Midloch Investment Partners,midloch.com,Milwaukee,Wisconsin,53203,,710,North Plankinton Avenue,United States,linkedin.com/company/midloch-investment-partners,,Fund,"Multifamily, Industrial, Commercial",,,,,,
OConnor Capital Partners,oconnorcp.com,,,,,,,,linkedin.com/company/o%27connor-capital-partners,6500000,Syndication,"Multifamily, Industrial, Retail, Hospitality",,,,,,
Impex Capital Group,impexcapitalgroup.com,,,,,,,,linkedin.com/company/impex-capital-group,1800000000,Syndication,"Multifamily, Industrial, Retail, Mixed Use",,,,,,
OBSIDIAN GROUP,obsidiangroup.com,Minneapolis,Minnesota,55401,,330,2nd Avenue South,United States,linkedin.com/company/obsidiangroup,,Syndication,"Multifamily, Industrial, Retail, Office",,,,,,
DWG Capital Partners,dwg-re.com,,,,,,,,,,,"Multifamily, Industrial, Retail, Office, Mixed Use, Development",,,,,,
Fundrise,fundrise.com,Washington,District of Columbia,20009,,1601,Connecticut Avenue Northwest,United States,linkedin.com/company/fundrise,7000000000,Syndication,"Multifamily, Industrial, Single Family",,,,,,
Next Wave Investors,nwimulti.com,,,,,,,,,1884,Syndication,"Multifamily, Management",,,,,,
Orion Real Estate Partners,orionrep.com,,,,,,,,,,Syndication,"Multifamily, Management",,,,,,
Polaris Real Estate Partners,polaris-lp.com,,,,,,,,linkedin.com/company/polaris-real-estate-partners,,Syndication,"Multifamily, Management",,,,,,
Range Group,rangegrp.com,,,,,,,,linkedin.com/company/range-grp,,Syndication,"Multifamily, Management",,,,,,
RealSource Properties,realsource.net,Cottonwood Heights,Utah,84121,,2089,Fort Union Boulevard,United States,linkedin.com/company/realsourceproperties,,Syndication,"Multifamily, Management",,,,,,
Signature Properties,signatureprops.net,Pikesville,Maryland,21208,,1700,Reisterstown Road,United States,linkedin.com/company/signature-properties-md,,Syndication,"Multifamily, Management",,,,,,
Roundhouse,rndhouse.com,,,,,,,,,,Syndication,"Multifamily, Management, Construction",,,,,,
Revesco Properties,revescoproperties.com,,,,,,,,,,Syndication,"Multifamily, Management, Office",,,,,,
Rowan Property Management,rowanpm.com,Kansas City,Missouri,,,,,United States,,,Syndication,"Multifamily, Management, Single Family",,,,,,
Marlin Spring,marlinspring.com,Toronto,Ontario,M6B 3A7,,2828,Bathurst Street,Canada,linkedin.com/company/marlinspringinvestments,,Syndication,"Multifamily, Office",,,,,,
Rhodium Capital Advisors,rhodiumre.com,,,,,,,,,,Syndication,"Multifamily, Office",,,,,,
Tavros Capital & Charney Companies,tavroscapital.com,,,,,,,,,,Syndication,"Multifamily, Office",,,,,,
Pepper Pike Capital Partners,pep-cap.com,Orange,Ohio,,,,,United States,,,Syndication,"Multifamily, Office,  Management",,,,,,
Tidegate Capital,tidegatecapital.com,Duxbury,Massachusetts,02331,,405,Washington Street,United States,linkedin.com/company/tidegate-capital,,Syndication,"Multifamily, Office, Commercial",,,,,,
Crescent Real Estate,crescent.com,Fort Worth,Texas,76102,750,777,Main Street,United States,linkedin.com/company/crescentrealestatellc,,Fund,"Multifamily, Office, Hospitality",,,,,,
Rose Valley Capital,rosevalleycapital.com,,,,,,,,,,Syndication,"Multifamily, Office, Industrial",,,,,,
Taurus Investment Holdings,tiholdings.com,,,,,,,,,10500000000,Syndication,"Multifamily, Office, Renewable Energy",,,,,,
Harbor Group International,harborg.com,,,,,,,,linkedin.com/company/harborgroupinternational,20000000000,Syndication,"Multifamily, Office, Retail",,,,,,
QC Capital,qccapitalgroup.com,,,,,,,,,,Fund,"Multifamily, Office, Retail",,,,,,
Prism Real Estate Services,prismres.com,Overland Park,Kansas,66212,,8826,Santa Fe Drive,United States,linkedin.com/company/prism-res-llc,,Syndication,"Multifamily, Office, Retail, Industrial",,,,,,
Presidium Group,presidiumre.com,,,,,,,,linkedin.com/company/presidium-group,2500000,Syndication,"Multifamily, Office, Retail, Student Housing",,,,,,
Frankforter Group,frankfortergroup.com,,,,,,,,linkedin.com/company/frankfortergroup,,Syndication,"Multifamily, Residential",,,,,,
Graystone Companies,graystoneco.com,Haymarket,Virginia,20169,,,,United States,,,Syndication,"Multifamily, Residential, Commercial",,,,,,
Greatwater Opportunity Capital,greatwater.us,Detroit,Michigan,48214,,8901,East Jefferson Avenue,United States,linkedin.com/company/greatwateropportunity,,,"Multifamily, Residential, Commercial",,,,,,
Boyer Company,boyercompany.com,,,,,,,,,,Syndication,"Multifamily, Residential, Retail, Mixed Use, Industrial",,,,,,
DelShah Capital,delshah.com,New York,New York,10003,,114,East 13th Street,United States,linkedin.com/company/delshah-capital-llc,1200000000,Syndication,"Multifamily, Retail, Hospitality",,,,,,
Banyan Court Capital,banyancourtcapital.com,Southlake,Texas,76092,,151,Players Circle,United States,linkedin.com/company/banyan-court-capital,,Syndication,"Multifamily, Retail, Industrial",,,,,,
Ilan Investments,ilaninvestments.com,,,,,,,,,,Syndication,"Multifamily, Retail, Land, Office, Industrial, Storage",,,,,,
Meridian Capital,meridiancap.com,Dallas,Texas,75219,,3811,Turtle Creek Boulevard,United States,linkedin.com/company/meridian-realty-advisors-l.p.,,Syndication,"Multifamily, Retail, Office",,,,,,
Lubert-Adler,lubertadler.com,Philadelphia,Pennsylvania,19103,,2400,Market Street,United States,linkedin.com/company/lubert-adler,9000000000,Fund,"Multifamily, Retail, Office, Hospitality",,,,,,
Gelt Ventures,gelt-ventures.com,,,,,,,,linkedin.com/company/gelt-inc,,Syndication,"Multifamily, Storage",,,,,,
Banner Real Estate Group,bannerrealestategroup.com,,,,,,,,linkedin.com/company/banner-real-estate-group,,Syndication,"Multifamily, Storage",,,,,,
Madison Capital Group,madisoncapgroup.com,,,,,,,,linkedin.com/company/madison-capital-group-llc,,Fund or Syndication,"Multifamily, Storage, Boat",,,,,,
Essential Realty Partners,erpartners.us,Dallas,Texas,75219,,2911,Turtle Creek Boulevard,United States,linkedin.com/company/essential-realty-partners,,Syndication,"Multifamily, Single Family",,,,,,
Investment.com,investment.com,,,,,,,,,,,"Multifamily, Single Family",,,,,,
Pintar Investment Company,pintarinvestmentcompany.com,San Juan Capistrano,California,92675,,27452,Calle Arroyo,United States,linkedin.com/company/pintar-investment-company,,Syndication,"Multifamily, Single Family",,,,,,
Red Summit Partners,redsummitpartners.com,,,,,,,,,,Syndication,"Multifamily, Single Family",,,,,,
Investors Choice OZ Fund,soundwestrc.com,,,,,,,,,650000000,Syndication,"Multifamily, Single Family",,,,,,
Strategic Properties,strategicproperties.com,Miami,Florida,33137,#203,250,Northeast 25th Street,United States,linkedin.com/company/strategic-properties,,Syndication,"Multifamily, Single Family",,,,,,
"Maven Investment Group, Inc",wedgewood-inc.com,,,,,,,Canada,,,Syndication,"Multifamily, Single Family",,,,,,
Kazi Property Group,kazipropertygroup.com,Los Angeles,California,90069,ste 800,750,North San Vicente Boulevard,United States,,,Syndication,"Multifamily, Single Family, Commercial",,,,,,
RD Advisors,rdadvisorsre.com,,,,,,,,linkedin.com/company/rd-advisors-llc,,Syndication,"Multifamily, Single Family, Commercial",,,,,,
FORT + HOME,fortandhome.com,,,,,,,,linkedin.com/company/fortandhome,,Syndication,"Multifamily, Single Family, Construction",,,,,,
GTIS Partners,gtispartners.com,New York,New York,,,,,United States,linkedin.com/company/gtis-partners,4200000000,Syndication,"Multifamily, Single Family, Industrial",,,,,,
Power Property Management,powerpropertymanagement.com,Culver City,California,90230,,11295,Washington Boulevard,United States,linkedin.com/company/power-property-management,,Syndication,"Multifamily, Single Family, Management",,,,,,
Realty Capital Residential,realtycapitalresidential.com,,,,,,,,,,Syndication,"Multifamily, Single Family, Office",,,,,,
Arabella Capital,arabella.capital,Buford,Georgia,30519,,,Lanier Parkway,United States,linkedin.com/company/arabella-capital,,Fund,"Multifamily, Storage",,,,,,
Reap Capital,reapcap.com,Dallas,Texas,75240,,5420,Lyndon B Johnson Freeway,United States,linkedin.com/company/reapcapital,90000000,Syndication,"Multifamily, Storage",,,,,,
Southwestern Property Corporation,swinvest.com,,,,,,,,linkedin.com/company/southwestern-property-corp,,Syndication,"Multifamily, Storage, Commercial",,,,,,
Jackson Dearborn Partners,jacksondearborn.com,Chicago,Illinois,60607,,404,South Wells Street,United States,https://www.linkedin.com/company/jackson-dearborn-partners/,,Syndication,"Multifamily, Student Housing",,,,,,
Palladius Capital Management,palladius.com,Austin,Texas,,,,,United States,https://www.linkedin.com/company/palladius-capital-management/,,Syndication,"Multifamily, Student Housing, Hospitality",,,,,,
Pinnacle Partners LLC,pinnacleoz.com,,,,,,,,,,Syndication,"Multifamily, Student Housing, Office",,,,,,
Strategic Projects Capital,strategicprojectscapital.com,,,,,,,,,,Syndication,"Multifamily, Student Housing, Senior Living",,,,,,
Arctos Capital,arctoscap.com,,,,,,,Canada,linkedin.com/company/arctos-cap,,Fund or Syndication,"Multifamily, Warehouse",,,,,,
Priam Properties,priamproperties.com,,,,,,,,linkedin.com/company/priam-capital/about,,Syndication,Office,,,,,,
Pillar Commercial,pillarcommercial.com,,,,,,,,,,Syndication,"Office, Industrial, Construction, Management",,,,,,
PRP,prprei.com,,,,,,,,,,Syndication,"Office, Industrial, Multifamily, Commercial",,,,,,
Greenlaw Partners,greenlawpartners.com,Newport Beach,California,92659,,,,United States,linkedin.com/company/greenlaw-partners,,Syndication,"Office, Industrial, Multifamily, Residential, Land, Retail, Hospitality",,,,,,
MCA Realty,mca-realty.com,,,,,,,,,,Fund,"Office, Industrial, Retail",,,,,,
Matt - Lingerfelt Commonwealth,lingerfelt.co,,,,,,,,linkedin.com/company/lingerfelt,2500000000,Fund,"Office, Industrial, Retail, Multifamily, Hotel, Medical",,,,,,
Kay Properties & Investments,kpi1031.com,Palos Verdes Estates,California,90274,,2516,Va Tejon,United States,linkedin.com/company/kpi1031,,Syndication,"Office, Multifamily",,,,,,
Capstone Equities,capstoneeq.com,,,,,,,,,,Syndication,"Office, Multifamily, Retail",,,,,,
GK Real Estate,gk-re.com,,,,,,,,linkedin.com/company/gk-development-inc-,,Syndication,"Office, Residential, Commercial",,,,,,
JBG SMITH,jbgsmith.com,Bethesda,Maryland,20814,,4747,Bethesda Avenue,United States,linkedin.com/company/jbgsmith,,,"Office, Residential, Retail",,,,,,
Six Ten,sixtenllc.com,,,,,,,,linkedin.com/company/six-ten-llc,,,"Office, Retail",,,,,,
FREO Group,freogroup.com,,,,,,,,linkedin.com/company/freo-group,,Syndication,"Office, Retail, Multi Use, Hotel, Residential, Industrial",,,,,,
Basin Street Properties,basin-street.com,,,,,,,,,,Syndication,"Office, Retail, Residential, Hospitality",,,,,,
FI Real Estate Capital Management,firealestatefunds.com,,,,,,,,,,Fund,Property Management,,,,,,
BDR Capital LLC,bdrholdings.com,,,,,,,,,,Syndication,Residential,,,,,,
Breakform Ventures,breakformre.com,,,,,,,,,,Syndication,Residential,,,,,,
Chatham Bay Group,chathambay.com,,,,,,,,linkedin.com/company/chatham-bay-group,,,Residential,,,,,,
Cornerstone Realty Partners,cornerstonerealtypartners.com,,,,,,,Canada,,,Syndication,Residential,,,,,,
Crowd Capital,crowdcapital.io,Miami,Florida,33132,,31,Northeast 17th Street,United States,linkedin.com/company/crowdcapitalco,,Fund,Residential,,,,,,
Fall Creek Asset Management,fallcreekassetmanagement.com,Indianapolis,Indiana,,,,,United States,,,Syndication,Residential,,,,,,
Homestead Properties Inc.,homesteadpropertiestn.com,,,,,,,,linkedin.com/company/homestead-properties,,,Residential,,,,,,
KeyGlee,keyglee.com,Phoenix,Arizona,,,,,United States,linkedin.com/company/keyglee,,,Residential,,,,,,
Pretium Ranch,pretium.com,,,,,,,,linkedin.com/company/pretium-partners-llc,51800000000,Syndication,Residential,,,,,,
Bridge Capital Management,bridgecapitalmanagement.com,Lenexa,Kansas,66215,,11248,Strang Line Road,United States,linkedin.com/company/bridge-capital-management-llc,,Fund,"Residential, Commercial",,,,,,
Citivest,citivestinc.com,,,,,,,,linkedin.com/company/citivest-inc,,Syndication,"Residential, Commercial",,,,,,
Diversified Properties,diversifiedproperties.com,Montville,New Jersey,,,,,United States,https://www.linkedin.com/company/diversifiedproperties/,1500000000,Syndication,"Residential, Commercial",,,,,,
Ethos Development,ethosdevelopmentllc.com,,,,,,,,linkedin.com/company/ethos-development-llc,,Syndication,"Residential, Commercial",,,,,,
Fifield Companies,fifieldco.com,,,,,,,,,,,"Residential, Commercial",,,,,,
Godwin Group,godwingroup.co.uk,,England,B3,,1,Newhall Street,United Kingdom,linkedin.com/company/godwin-developments-llp,,Syndication,"Residential, Commercial",,,,,,
Humabuilt Capital,humabuilt.com,Apex,North Carolina,,,,,United States,,,,"Residential, Commercial",,,,,,
G Street Ventures,gstreetventures.com,San Francisco,California,94108,,237,Kearny Street,United States,linkedin.com/company/g-street-ventures,,Syndication,"Residential, Commercial, Hotel, Retail, Multifamily",,,,,,
Bond Companies,bondcompanies.com,,,,,,,,,,Syndication,"Residential, Commercial, Mixed Use",,,,,,
Extell Development Company,extell.com,,,,,,,,linkedin.com/company/extell-development-company,,Syndication,"Residential, Commercial, Mixed Use, Hospitality",,,,,,
JMD Realty,jmdcre.com,,,,,,,,linkedin.com/company/jmd-realty,,,"Residential, Commercial, Multifamily, Land",,,,,,
American Real Estate Partners,americanrepartners.com,,,,,,,,linkedin.com/company/american-real-estate-partners,5300000000,Syndication,"Residential, Data Centers",,,,,,
The Buccini/Pollin Group,bpgroup.net,Chevy Chase,Maryland,,,,,United States,,6000000000,Syndication,"Residential",,,,,,
Insight Property Group,insightpropertygroupllc.com,,,,,,,Canada,linkedin.com/company/insight-property-group-llc,,,"Residential, Mixed Use",,,,,,
J. Jeffers & Co.,jjeffers.com,,,,,,,,linkedin.com/company/j-jeffers-&-co,,,"Residential, Mixed Use",,,,,,
Bellaire Real Estate Funds,bellairerealestatefunds.com,Los Angeles,California,91364,,20929,Ventura Boulevard,United States,linkedin.com/company/bellaire-real-estate-funds,,Fund,"Residential, Multifamily",,,,,,
F Street Group,fstreetgroup.com,,,,,,,,linkedin.com/company/f-street-corporation,,Fund or Syndication,"Residential, Multifamily",,,,,,
JID Investments,jidinvestments.com,Burke,Virginia,,,,,United States,linkedin.com/company/jid-investments-llc,,Fund or Syndication,"Residential, Multifamily",,,,,,
Corporex Companies,corporex.com,Covington,Kentucky,41011,,100,East Rivercenter Boulevard,United States,linkedin.com/company/corporex,1000000000,Syndication,"Residential, Retail, Hotel, Mixed Use, Hospitality",,,,,,
Medearis Holdings,qurateretailgroup.com,Elizabeth,Colorado,80107,,,,United States,,,Syndication,Retail,,,,,,
CEG Capital Partners,cegadvisors.com,San Diego,California,,,,,United States,linkedin.com/company/ceg-capital-partners,,Syndication,"Retail, Industrial, Office",,,,,,
KM Realty Advisors LLC,kmrealty.net,,,,,,,,linkedin.com/company/km-realty,,,"Retail, Land",,,,,,
Cameron Property,cameronpropertyco.com,Charlotte,North Carolina,,,,,United States,linkedin.com/company/cameronpropertycompany,,Syndication,"Retail, Mixed Use, Industrial",,,,,,
Harbert Realty Services,harbertrealty.com,Birmingham,Alabama,35203,150,2,20th Street North,United States,linkedin.com/company/harbert-realty-services,,,"Retail, Multifamily",,,,,,
Aries Real Estate,ariesre.com,Northbrook,Illinois,60062,,3175,Commercial Avenue,United States,,,Syndication,"Retail, Multifamily, Commercial",,,,,,
Dunton Commercial,dunton-commercial.com,,,,,,,,linkedin.com/company/dunton-commercial-real-estate,,Syndication,"Retail, Office, Industrial",,,,,,
Creative Realty Group,creativerealtygroup.com,Miami,Florida,33161,,10800,Biscayne Boulevard,United States,linkedin.com/company/creative-realty-group,,Syndication,"Retail, Residential, Medical",,,,,,
Embree Group,embreegroup.com,Georgetown,Texas,78633,,4747,Williams Drive,United States,linkedin.com/company/embree-group,,Syndication,"Retail, Storage, Healthcare",,,,,,
Climb Capital,climbcapital.com,Pensacola,Florida,,,,,United States,linkedin.com/company/climb-capital,49000000,Fund or Syndication,RV Parks,,,,,,
CMG,cmgparks.com,,,,,,,,,,Syndication,RV Parks,,,,,,
"Blue Metric Group, LLC",bluemetricgroup.com,,,,,,,Canada,linkedin.com/company/bluemetric,,Syndication,RV Parks,,,,,,
Abernathey Holdings,abernatheyholdingco.com,Scottsdale,Arizona,85251,,7150,East Camelback Road,United States,linkedin.com/company/abernathey-holdings,,Fund,Storage,,,,,,
Belrose Storage Group,belrosestoragegroup.com,,,,,,,Canada,linkedin.com/company/belrose-storage-group,,Syndication,Storage,,,,,,
Pebble Ridge Capital,pebbleridgecap.com,,,,,,,,linkedin.com/company/pebble-ridge-cap,,Syndication,Storage,,,,,,
Airworthy Capital,airworthycapital.com,,,,,,,,linkedin.com/company/airworthycapital,,Fund,"Storage, Apartments, Multifamily",,,,,,
Cornerstone Development,cornerstonedev.com,,,,,,,,,,Syndication,"Storage, Condominiums",,,,,,
The Jenkins Organization,jenkinsorg.com,,,,,,,,linkedin.com/company/the-jenkins-organization1,,,"Storage, RV Parks",,,,,,
Senior Living Fund,seniorlivingfund.com,Lenexa,Kansas,,,,,United States,linkedin.com/company/senior-living-fund,,Fund,Senior Housing,,,,,,
McFarlin Group,mcfarlin-group.com,,,,,,,,,,Syndication,Senior Living,,,,,,
EPOC Real Estate,epocre.com,Austin,Texas,78741,,2301,East Riverside Drive,United States,linkedin.com/company/epoc-real-estate,74000000,Fund,Single Family,,,,,,
The Peak Group,thepeak.group,Hurst,Texas,76054,,1845,Precinct Line Road,United States,linkedin.com/company/thepeakgroup,,Syndication,Single Family,,,,,,
Cove Capital Investments,covecapitalinvestments.com,Rolling Hills Estates,California,,,,,United States,,,Fund or Syndication,"Single Family, Multifamily",,,,,,
Gatsby Investment,gatsbyinvestment.com,Beverly Hills,California,90212,,9454,Wilshire Boulevard,United States,linkedin.com/company/gatsby-investment,,Fund or Syndication,"Single Family, Multifamily",,,,,,
KeyCity Capital,keycitycapital.com,,,,,,,,inkedin.com/company/keycity-capital,485000000,Syndication,"Single Family, Multifamily",,,,,,
The Klimenko Group,klimenkogroup.com,San Diego,California,92037,,737,Pearl Street,United States,https://www.linkedin.com/company/klimenkogroup/,,Syndication,"Single Family, Multifamily",,,,,,
Rent Safe,rentsafellc.com,,,,,,,,,,Syndication,Single Family,,,,,,
Systematic Capital Management,systematiccap.com,Weatherford,Texas,,,,,United States,https://www.linkedin.com/company/systematiccapital/,,Syndication,"Single Family, Commercial, Multifamily",,,,,,
10 Federal,10federal.com,Raleigh,North Carolina,27604,,3301,Atlantic Avenue,United States,linkedin.com/company/10-federal-management,500000000,Fund,Storage,,,,,,
AMR REIT,amr.capital,Dallas,Texas,75201,,200,Crescent Court,United States,https://www.linkedin.com/company/amrcapital/,,Fund,Storage,,,,,,
Bolt Storage,boltstorage.com,Athens,Georgia,30606,,125,Lar Court,United States,linkedin.com/company/bolt-storage,,,Storage,,,,,,
Commune Capital,communecapital.com,Thousand Oaks,California,91362,,,,United States,linkedin.com/company/commune-capital,,Fund,Storage,,,,,,
Crystal Peaks Storage Group,cp-investments.com,,,,,,,,,,Syndication,Storage,,,,,,
Hearthfire Holdings,hfireholdings.com,,,,,,,,linkedin.com/company/hearthfire-holdings,50,Syndication,Storage,,,,,,
Invest With Legacy,investwithlegacy.com,Haddonfield,New Jersey,,,,,United States,https://www.linkedin.com/company/legacy-developers-llc/,,,Storage,,,,,,
Golden State Storage,goldenstatestorage.com,Camarillo,California,93010,,400,West Ventura Boulevard,United States,,60,Syndication,Storage,,,,,,
Prestige Storage Capital,prestigestoreit.com,Columbus,Ohio,43216,,,,United States,linkedin.com/company/prestige-storage-capital,,Syndication,Storage,,,,,,
Reliant Real Estate,reliant-mgmt.com,Roswell,Georgia,30075,,1146,Canton Street,United States,linkedin.com/company/reliant-self-storage,,Syndication,Storage,,,,,,
Riverbound,riverboundcustomstorage.com,,,,,,,,,,,Storage,,,,,,
Storage Investing,selfstorageinvesting.com,,,,,,,,linkedin.com/company/self-storage-investing,,Syndication,Storage,,,,,,
SNL Storage,snlstorage.com,New Hyde Park,New York,11042,,3333,New Hyde Park Road,United States,linkedin.com/company/snl-construction-llc,,Syndication,Storage,,,,,,
Spartan Investment Group,spartan-investors.com,Washington,District of Columbia,20003,,611,Pennsylvania Avenue Southeast,United States,linkedin.com/company/spartan-investment-group-llc,500000000,Syndication,Storage,,,,,,
Titan Wealth Group,titanwealthgroup.com,Chicago,Illinois,60657,,3023,North Clark Street,United States,linkedin.com/company/titanwealthgroup,,Syndication,Storage,,,,,,
Vault Venture,vaultventures.net,,,,,,,,https://www.linkedin.com/company/vault-venture-llc/,49000000,Syndication,Storage,,,,,,
DealPoint Merrill,dealpointmerrill.com,Los Angeles,California,90025,,11620,Wilshire Boulevard,United States,linkedin.com/company/dealpoint-merrill,1000000000,Fund or Syndication,"Storage, Commercial",,,,,,
VanWest Partners,vanwestpartners.com,Denver,Colorado,80223,,1830,South Bannock Street,United States,linkedin.com/company/vanwest-partners,,Syndication,"Storage, Commercial",,,,,,
Terrapin Investments,terrapininvestments.com,,,,,,,,,,Syndication,"Storage, Hospitality",,,,,,
Stoic Equity Partners,stoicep.com,,,,,,,,,,Syndication,"Storage, Industrial, Commercial",,,,,,
Ojai Oil,ojaioil.com,Camarillo,California,93010,,400,West Ventura Boulevard,United States,linkedin.com/company/ojai-oil-company,,Syndication,"Storage, Management, Commercial",,,,,,
Platinum Storage Group & Storage Direct,platinumstorage.com,,,,,,,,,,Syndication,"Storage, Management, Commercial",,,,,,
SMK Capital Management,smkcap.com,Bend,Oregon,,,,,United States,,,Fund,"Storage, Mobile Home, ATM, Multifamily",,,,,,
Harvard Grace Capital,harvardgrace.com,,,,,,,,linkedin.com/company/harvard-grace-corporation,17200000,Syndication,"Storage, Office",,,,,,
IBEX Real Estate Funds,ibexfund.us,,,,,,,,,,Fund,"Storage, Office",,,,,,
Campus Advantage,campusadv.com,Austin,Texas,78746,,110,Wild Basin Road South,United States,linkedin.com/company/campus-advantage,,Syndication,Student Housing,,,,,,
Student Quarters,livesq.com,Atlanta,Georgia,30303,,206,Edgewood Avenue Northeast,United States,linkedin.com/company/student-quarters,,Syndication,Student Housing,,,,,,
OC Ventures,oc-ventures.com,,,,,,,,,6000,Syndication,Student Housing,,,,,,
Sotol Capital,sotolcapital.com,,,,,,,,,,Syndication,Student Housing,,,,,,
Zyyo,zyyo.com,,,,,,,,linkedin.com/company/zyyo,300000000,,Tech Real Estate,,,,,,
Vacation Rental Real Estate,vacationrentalre.com,San Diego,California,92121,,6450,Lusk Boulevard,United States,linkedin.com/company/vacation-rental-real-estate,,Syndication,Vacation Rental,,,,,,
Mansion Group,mansion.io,,,,,,,,,,Syndication,Vacation Rentals,,,,,,
Parsons Fund,parsonsvillas.com,,,,,,,,,,Syndication,Vacation Rentals,,,,,,
Jali,jali.co,,,,,,,,linkedin.com/company/jali-investments,1400000000,Syndication,"Witness Investments, Hotel Equities",,,,,,
Compass Capital Partners,compass-cap.com,,,,,,,,linkedin.com/company/compass-capital-for-financial-investments,,,,,,,,,
Frostfire Capital,frostfirecapital.com,,,,,,,,linkedin.com/company/frostfirecapital,,,,,,,,,
Mundy Mill Partners,  ,,,,,,,,,,,,,,,,,
Symphony Asset Management,  ,,,,,,,,,,,,,,,,,
1031 Crowdfunding,1031crowdfunding.com,Irvine,California,,,,,United States,linkedin.com/company/1031-crowdfunding-llc,,,,,,,,,
3650 REIT,3650reit.com,,,,,,,,linkedin.com/company/3650reit,,,,,,,,,
Fifth Third Bank,53.com,Cincinnati,Ohio,45202,,511,Walnut Street,United States,linkedin.com/company/fifth-third-bank,,,,,,,,,
601W Companies,601wcompanies.com,,,,,,,,linkedin.com/company/601-west-management-corp,7000000000,Syndication,,,,,,,
Acram Group,acramgroup.com,,,,,,,,linkedin.com/company/the-acram-group/,,,,,,,,,
AcreTrader,acretrader.com,Fayetteville,Arkansas,72701,,112,West Center Street,United States,linkedin.com/company/acre-trader,,,,,,,,,
Acushnet,acushnetgolf.com,Fairhaven,Massachusetts,02719,,333,Bridge Street,United States,linkedin.com/company/acushnet-company,,,,,,,,,
Adaptive Realty,adaptiverealty.com,Los Angeles,California,,,,,United States,linkedin.com/company/adaptive-realty-inc,100000000,,,,,,,,
Adler Group,adlergroup.com,,,,,,,,linkedin.com/company/adler-group,,,,,,,,,
Ad Meliora,admeliorallc.com,Boston,Massachusetts,,,,,United States,linkedin.com/company/admeliorallc,200000000,Syndication,,,,,,,
AECOM,aecom.com,Los Angeles,California,90067,,1999,Avenue of the Stars,United States,linkedin.com/company/aecom,,,,,,,,,
Agman Partners,agmanpartners.com,Chicago,Illinois,60611,,10,East Ohio Street,United States,linkedin.com/company/agman-partners,,,,,,,,,
ALG Holdings,algholdings.co,,Texas,,,,,United States,linkedin.com/company/alg-holdings,,,,,,,,,
The Allen Morris Company,allenmorris.com,,,,,,,,linkedin.com/company/the-allen-morris-company,,,,,,,,,
Alliance Advisory & Securities,allianceadvisory.com,,,,,,,,linkedin.com/company/alliance-advisory-&-securities-inc-,,,,,,,,,
Alliance Financial Group,alliancefgi.com,Dallas,Texas,75230,910,12720,Hillcrest Road,United States,linkedin.com/company/alliance-financial-group-inc.,,,,,,,,,
Alliant Capital,alliantcapital.com,Calabasas,California,,,,,United States,linkedin.com/company/alliant-asset-management,17000000000,Syndication,,,,,,,
Alphatech Lending,alphatechlending.com,,,,,,,,linkedin.com/company/alphatechlending,,,,,,,,,
Alternative Funding Group,altfunding.com,Fort Lauderdale,Florida,33309,,1000,Northwest 65th Street,United States,linkedin.com/company/altfunding,,,,,,,,,
Alvani Capital,alvanicapital.com,Fort Myers,Florida,33908,,14250,Royal Harbour Court,United States,https://www.linkedin.com/company/alvani-llc/,,,,,,,,,
JLL,am.jll.com,,,,,,,Canada,linkedin.com/company/jll,,,,,,,,,
Appaloosa Real Estate Partners,appaloosarep.com,Charlotte,North Carolina,28209,,2820,Selwyn Avenue,United States,linkedin.com/company/appaloosa-real-estate-partners-llc,,,,,,,,,
Applesway Investment Group,appleswaygroup.com,,,,,,,,linkedin.com/company/applesway-investment-group,,,,,,,,,
Capital Real Estate,http://www.capitalrealestateusa.com/,Denver,Colorado,,,,,United States,linkedin.com/company/cre-usa,,,,,,,,,
Ark7,ark7.com,San Francisco,California,94105,,535,Mission Street,United States,https://www.linkedin.com/company/ark7official/,,Syndication,,,,,,,
Arrows Capital Group,arrowscapitalgroup.com,,,,,,,,linkedin.com/company/arrows-capital-group,,,,,,,,,
Asset Quest,assetquest.com,Cape Coral,Florida,33991,,2180,Southwest 1st Street,United States,linkedin.com/company/asset-quest,,,,,,,,,
Asymmetria Group,asymmetriagroup.com,,,,,,,,,,,,,,,,,
The Athens Group,athensdevco.com,Phoenix,Arizona,85016,,2200,East Camelback Road,United States,linkedin.com/company/the-athens-group,,,,,,,,,
Athian,athian.com,San Francisco,California,,,,,United States,https://www.linkedin.com/company/athian/,,,,,,,,,
Authenus,authenus.com,,,,,,,,linkedin.com/company/authenus,,,,,,,,,
Parking Vault,autoparkingvault.com,,,,,,,,,,,,,,,,,
Avanti Residential,avantiresidential.com,Denver,Colorado,80210,,1700,South Broadway,United States,linkedin.com/company/avantiresidential,,,,,,,,,
Avestor,avestorinc.com,Portland,Oregon,,,,,United States,linkedin.com/company/avestor-inc,,Fund,,,,,,,
Ballast Investments,ballastinvestments.com,San Francisco,California,94104,,351,California Street,United States,linkedin.com/company/ballast-investments,,,,,,,,,
Banyan Street Capital,banyanstreet.com,Miami,Florida,33130,,80,Southwest 8th Street,United States,linkedin.com/company/banyan-street-capital,,,,,,,,,
Guidon Fund,battlemonument.com,,,,,,,,,,Fund,,,,,,,
Baxon Capital,baxoncapital.com,Fort Myers,Florida,33901,,2180,West First Street,United States,linkedin.com/company/baxon-capital,,,,,,,,,
BBB TANK SERVICES,bbbtankservices.com,Baytown,Texas,77520,,162,Independence Parkway North,United States,linkedin.com/company/bbb-tank-services-inc.,,,,,,,,,
Bellavista Building Group,bellavistabuilding.com,,,,,,,,,,,,,,,,,
Belrose Asset Management,belroseam.com,Wayne,Pennsylvania,19087,,351,East Conestoga Road,United States,linkedin.com/company/belrose-asset-management-llc,,,,,,,,,
Best REI Funding,bestreifunding.com,,,,,,,,,,,,,,,,,
Beyond International Group,beyond-wm.com,Irvine,California,,,,,United States,,,,,,,,,,
The Nest Opportunity Fund,bhadvisory.com,Dublin,Ohio,,,,,United States,,,,,,,,,,
First Position Capital,biathloninvestments.com,Portland,Oregon,,,,,United States,,,,,,,,,,
Blackfish Investments,blackfishinvestments.com,Provo,Utah,84604,,1502,North Freedom Boulevard,United States,linkedin.com/company/blackfish-investments,,,,,,,,,
Block Real Estate Services,blockllc.com,Kansas City,Missouri,64112,,700,West 47th Street,United States,linkedin.com/company/block-real-estate-services,,Fund,,,,,,,
The Blueaura Group,blueauragroup.com,Knoxville,Tennessee,37919,,4315,Kingston Pike,United States,linkedin.com/company/blueauragroup,,Fund,,,,,,,
Bluefin Real Estate Advisors,bluefinrea.com,,,,,,,,linkedin.com/company/bluefin-real-estate-advisors,,,,,,,,,
BOCA Plus,bocaplus.com,Tahoe City,California,,,,,United States,linkedin.com/company/boca-plus,,Fund,,,,,,,
Boston Pads,bostonpads.com,Boston,Massachusetts,02134,,1243,Commonwealth Avenue,United States,linkedin.com/company/boston-pads,,,,,,,,,
BPM Senior Living,bpmsl.com,Portland,Oregon,97209,,1331,Northwest Lovejoy Street,United States,linkedin.com/company/bpm-senior-living-company,,,,,,,,,
BridgeTower Capital,bridgetowercapital.com,Boise,Idaho,83702,,3003,West Main Street,United States,linkedin.com/company/bridgetowercapital,,,,,,,,,
Bridgeview Real Estate,bridgeviewre.com,Dallas,Texas,75225,,8117,Preston Road,United States,linkedin.com/company/bridgeview-real-estate,,,,,,,,,
Cadman Capital Group,btinternet.com,,,,,,,Canada,,,,,,,,,,
Builders Capital,builderscapital.com,Puyallup,Washington,98374,,1019,39th Avenue Southeast,United States,linkedin.com/company/builders-capital,,,,,,,,,
Owners Club West Coast,calbaptist.edu,,,,,,,,,,,,,,,,,
Capstone Development,capstonempmail.com,,,,,,,,,,,,,,,,,
Capstone Realty Group,capstonerealtygroupusa.com,,,,,,,,,,,,,,,,,
Cardinal Capital Management,cardinalcapital.us,Raleigh,North Carolina,27608,,2626,Glenwood Avenue,United States,,,,,,,,,,
Carolina Capital Management,carolinahardmoney.com,,,,,,,,,,,,,,,,,
Cascadia Senior Living & Development,cascadiadevelopment.com,,,,,,,,,,,,,,,,,
Asym Capital,asymcapital.com,West Hollywood,California,,,,,United States,,,,,,,,,,
Castellan Capital,castellancapital.com,New York,New York,,,,,United States,linkedin.com/company/castellan-capital,,,,,,,,,
Castellan Real Estate Partners,castellanre.com,New York,New York,10168,,122,East 42nd Street,United States,linkedin.com/company/castellan-real-estate-partners,,,,,,,,,
Central Coast Brewing,centralcoastbrewing.com,San Luis Obispo,California,93401,,1422,Monterey Street,United States,linkedin.com/company/central-coast-brewing,,,,,,,,,
Stone Capital,centraliens.net,,,,,,,,,,,,,,,,,
Avalon Capital Partners,chatfieldesq.com,,,,,,,,,,,,,,,,,
Community Housing Network,chninc.org,,,,,,,Canada,,,,,,,,,,
Christina Development Corporation,christinala.com,,,,,,,,,,,,,,,,,
CINSociety,cinsociety.com,,,,,,,,,,,,,,,,,
Cloud Mellow,cloudmellow.com,,,,,,,,,,,,,,,,,
CMB Regional Centers,cmbeb5visa.com,,,,,,,,linkedin.com/company/cmbregionalcenters,,,,,,,,,
Miotti Partners Capital,miottipartnerscapital.com,,,,,,,,linkedin.com/company/miotti-partners-capital,,,,,,,,,
CNL Financial Group,cnl.com,Orlando,Florida,32801,,450,South Orange Avenue,United States,linkedin.com/company/cnl,,,,,,,,,
Collective Management,collectivemanagement.tv,,,,,,,,,,,,,,,,,
Carpathian Capital Management,carpathiancapital.com,,,,,,,,,1500000000,Fund or Syndication,,,,,,,
Comfort Communities,comfortcommunities.com,Tucson,Arizona,85705,,38,West Prince Road,United States,linkedin.com/company/comfort-communities,,,,,,,,,
Compounding Capital Holdings,compoundingcapital.holdings,West Des Moines,Iowa,,,,,United States,linkedin.com/company/compounding-capital-holdings,,,,,,,,,
CompQsoft Inc,compqsoft.com,,,,,,,,linkedin.com/company/compqsoft-inc,,,,,,,,,
Convox,convox.com,Miami,Florida,33137,,4300,Biscayne Boulevard,United States,linkedin.com/company/convox,,,,,,,,,
The Corcoran Group,corcoran.com,New York,New York,10065,,660,Madison Avenue,United States,linkedin.com/company/the-corcoran-group,,,,,,,,,
Sherpa Commercial,cresherpa.com,Parshall,Colorado,80468,,422,Iron Horse Way,United States,linkedin.com/company/sherpa-commercial-real-estate,,,,,,,,,
Cross Properties,crossprop.com,,,,,,,,,,,,,,,,,
DB Capital,dbcap.com,,,,,,,,linkedin.com/company/dbcapitalmanagement,,,,,,,,,
Defy Co.Labs,defycolabs.com,,,,,,,Canada,linkedin.com/company/defy-colabs,,,,,,,,,
Diversified Foods,diversifiedfoods.com,,,,,,,,,,,,,,,,,
Moonhole Company Limited,dixiebeer.com,,,,,,,Canada,,,,,,,,,,
D.O. Capital Group,docapitalgroup.com,,,,,,,,,,,,,,,,,
Resource Realty Group,resourcecolumbia.com,,,,,,,,,,,,,,,,,
East Harlem Tutorial Program,ehtp.org,New York,New York,10029,,2050,2nd Avenue,United States,linkedin.com/company/east-harlem-tutorial-program,,,,,,,,,
"Epoch Investment Partners, Inc.",eipny.com,,,,,,,Canada,,,,,,,,,,
Vantage Management,thevantagegroup.biz,,,,,,,,,,,,,,,,,
Enterprise Community Partners,enterprisecommunity.org,Columbia,Maryland,21044,,11000,Broken Land Parkway,United States,linkedin.com/company/enterprise-community-partners,,,,,,,,,
Entrepreneurs Organization - Minnesota,eonetwork.org,Alexandria,Virginia,,,,,United States,https://www.linkedin.com/company/entrepreneursorg/,,,,,,,,,
Everwood Hospitality Partners,everwoodhp.com,Carmel,Indiana,,,,,United States,linkedin.com/company/everwoodhp,,,,,,,,,
eXp Commercial,expcommercial.com,Bellingham,Washington,,,,,United States,linkedin.com/company/exp-commercial,,,,,,,,,
eXp Realty,exprealty.com,Bellingham,Washington,98226,Suite 301,2219,Rimland Drive,United States,https://www.linkedin.com/company/exp-realty/,,,,,,,,,
Fairchild Acquisition,fairchildgroupllc.com,,,,,,,,,,,,,,,,,
Family Office Club,familyoffices.com,,,,,,,,,,,,,,,,,
Fidus Capital,fdus.com,Evanston,Illinois,60201,,1603,Orrington Avenue,United States,linkedin.com/company/fidus-capital,,,,,,,,,
Fidus Investment Corporation,fidusinv.com,,,,,,,,,,,,,,,,,
Fiola Communities,fiolacommunities.com,Anaheim,California,92805,,200,North Harbor Boulevard,United States,linkedin.com/company/fiolacommunities,,,,,,,,,
First Choice Capital,firstchoicecapital.com,,,,,,,Canada,linkedin.com/company/first-choice-capital-llc,,,,,,,,,
Fisher Bay,fisherbay.com,Chattanooga,Tennessee,37408,,1830,Washington Street,United States,linkedin.com/company/fisherbay,,,,,,,,,
Fisher Global Development,fishergloballlc.com,,,,,,,,,,,,,,,,,
FLORIDA AIR EXPRESS AIRLINES Inc.,floridaairexpress.com,,,,,,,Canada,,,,,,,,,,
Fortis Companies,fortisinc.com,St. Johns,Newfoundland and Labrador,A1E 0E4,,5,Springdale Street,Canada,https://www.linkedin.com/company/fortis-inc./?originalSubdomain=ca,,,,,,,,,
Foundry Commercial,foundrycommercial.com,,,,,,,,,,,,,,,,,
Four Peaks Capital Partners,fourpeakspartners.com,,Arizona,,,,,United States,linkedin.com/company/four-peaks-capital-partners,,,,,,,,,
Freaky Fast Home Buyers,freakyfastinvestments.com,Fort Worth,Texas,76114,,105,Nursery Lane,United States,,,,,,,,,,
Freedom Family Office,freedomfamilyoffice.com,,,,,,,Canada,linkedin.com/company/freedom-family-office,,,,,,,,,
Georgia Tech,gatech.edu,Atlanta,Georgia,30332,,,North Avenue Northwest,United States,linkedin.com/school/georgia-institute-of-technology,,,,,,,,,
Game Change Capital,gccapital.us,,,,,,,,,,,,,,,,,
Ginkgo Residential,ginkgores.com,Charlotte,North Carolina,28202,,200,South College Street,United States,linkedin.com/company/ginkgo-residential,,,,,,,,,
Sustainable Comfort,greenrater.com,Worcester,Massachusetts,01608,,146,Main Street,United States,linkedin.com/company/sustainable-comfort-inc-,,,,,,,,,
Green Residential,greenresidential.com,,,,,,,,,,,,,,,,,
Green Street Realty,greenstrealty.com,Champaign,Illinois,61820,,510,South Neil Street,United States,linkedin.com/company/greenstreetrealty,,,,,,,,,
Greenwing Companies,greenwingpdx.com,,,,,,,Canada,,,,,,,,,,
Greystar,greystar.com,Charleston,South Carolina,29401,,18,Broad Street,United States,linkedin.com/company/greystar,,,,,,,,,
Grupo Chomer,grupochomer.com,Buenos Aires,Buenos Aires,,,5478,Avenida del Libertador,Argentina,linkedin.com/company/grupo-chomer,,,,,,,,,
Hatley Law Group,hatleylawgroup.com,San Diego,California,92130,,12636,High Bluff Drive,United States,linkedin.com/company/hatley-law-group-a.p.c.,,,,,,,,,
HaydenTanner,haydentanner.com,,,,,,,,linkedin.com/in/molly-mccabe-5549474,,,,,,,,,
Herbert Legal Group,herbertlegalgroup.com,Roswell,Georgia,30076,,1402,Macy Drive,United States,linkedin.com/company/herbert-legal-group-llc,,,,,,,,,
Hiatus Homes,hiatushomes.com,Bend,Oregon,,,,,United States,linkedin.com/company/hiatus-homes,,Syndication,,,,,,,
Highland Blasting & Associates,highlandblasting.com,Kodak,Tennessee,37764,,,,United States,,,,,,,,,,
Highlands Residential,highlandsresidential.com,Atlanta,Georgia,30309,,1777,Peachtree Street Northeast,United States,linkedin.com/company/highlandsresidential,,,,,,,,,
Honokea Surf Villages & Resorts,honokea.com,Kailua,Hawaii,,,,,United States,,,Fund,,,,,,,
Vincent Companies,vincentcompaniesmn.com,,,,,,,,linkedin.com/company/vincent-companies,,,,,,,,,
Hughes Private Capital,hughescapital.com,Reno,Nevada,89511,,5440,Louie Lane,United States,linkedin.com/company/hughes-private-capital,,,,,,,,,
Flow Property Group,flowpg.com,,,,,,,,,,,,,,,,,
iCap Equity,icapequity.com,Bellevue,Washington,98006,,3535,Factoria Boulevard Southeast,United States,linkedin.com/company/icap-equity-llc,,,,,,,,,
iCross Fund Inc./ iCross Capital,icrossfund.com,,,,,,,,,,,,,,,,,
iintoo,iintoo.com,,,,,,,,linkedin.com/company/iintoo,3360000000,Syndication,,,,,,,
"Trunorth Capital Management, LLC",trunorthcapital.com,,,,,,,,linkedin.com/company/trunorth-capital-management-llc,,,,,,,,,
Internacional,internacionalrealty.com,San Antonio,Texas,78215,,2251,Broadway,United States,linkedin.com/company/internacional-realty,,,,,,,,,
212 Management Group,invest212.com,Friendswood,Texas,,,,,United States,,,Syndication,,,,,,,
Invest In Kona,investinkona.com,Beverly Hills,California,90211,,,,United States,linkedin.com/company/kona-development-partners-llc,,Fund,,,,,,,
Carbon Real Estate Investments,investwithcarbon.com,Miami,Florida,33127,,218,Northwest 24th Street,United States,https://www.linkedin.com/company/carbon-real-estate-investments/,,,,,,,,,
IVY Capital,ivycapital.com,,Shang Hai Shi,,,,Fang Dian Lu,China,https://www.linkedin.com/company/ivy-capital/,,Fund,,,,,,,
Janus Henderson Investors,janushenderson.com,,England,EC2M 3UN,,201,Bishopsgate,United Kingdom,linkedin.com/company/janus-henderson-investors,,,,,,,,,
JDS Development Group,jdsdevelopment.com,New York,New York,10011,,104,5th Avenue,United States,linkedin.com/company/jds-development-group,,,,,,,,,
Jennkins Home Builders,jenkinshomeservices.com,River Falls,Wisconsin,54022,,265,Mound View Road,United States,linkedin.com/company/jenkins-home-builders-inc,,,,,,,,,
Jenkins Property Management,jenkinspropertymanagement.com,,,,,,,,linkedin.com/company/jenkins-home-services,,,,,,,,,
JT Capital,jtcapitalgroup.com,Austin,Texas,,,,,United States,,,,,,,,,,
Invest with JT Foxx,jtfoxxorg.com,,,,,,,,,,,,,,,,,
Kaliser & Associates,kaliserlaw.com,,,,,,,,,,,,,,,,,
Vicon Holding & Investment Company,knoxhouses.com,,,,,,,,,,,,,,,,,
Kroh Exploration,krohexploration.com,Fort Worth,Texas,76109,,2714,Greene Avenue,United States,linkedin.com/company/krohexploration,,,,,,,,,
Labrador Lending,labradorlending.com,Cockeysville,Maryland,21030,,9805,York Road,United States,linkedin.com/company/labrador-lending,,,,,,,,,
Land Intelligence,landintelligence.net,,,,,,,Canada,https://www.linkedin.com/company/landsuitedeals/,,,,,,,,,
L&L Hospitality,landlhospitality.com,Portland,Oregon,,,,,United States,,,,,,,,,,
LEX,landwright.com,New York,New York,,,,,United States,,,,,,,,,,
Larson Financial Group,larsonfinancial.com,,,,,,,,,,,,,,,,,
Law Capital Partners,lawcapitalpartners.com,,,,,,,Canada,,,,,,,,,,
Cash Flow Capital,layovermoney.com,,,,,,,,,,,,,,,,,
Leander Equities,leandereq.com,,,,,,,,,,Syndication,,,,,,,
LEAP Charities.,leaphousing.org,Boise,Idaho,,,,,United States,linkedin.com/company/leap-housing,,Fund,,,,,,,
Legacy Wealth Holdings,legacywealthholdings.com,Rocky River,Ohio,44116,,13443,Detroit Road,United States,linkedin.com/company/legacy-wealth-holdings,,,,,,,,,
Shared Estates Asset Fund/ The Freeman Berkshires,lendsnap.com,Irving,Texas,,,,,United States,,,,,,,,,,
The Leumas Group,leumasgroup.com,,,,,,,,linkedin.com/company/leumasgroup,,,,,,,,,
LEX Markets,lex-markets.com,,,,,,,,,,,,,,,,,
LG Group,lg-group.com,Chicago,Illinois,60647,,2234,West North Avenue,United States,linkedin.com/company/lg-group-chicago,,,,,,,,,
Lifestyle Asset Group,lifestyleassetgroup.com,Fort Collins,Colorado,,,,,United States,linkedin.com/company/lifestyle-asset-group,,,,,,,,,
Lingerfelt,lingerfeltco.com,,,,,,,,,,,,,,,,,
Liquid Capital,liquidcapitalre.com,,,,,,,,,,,,,,,,,
The Maryland and Delaware Group of Long and Foster,longandfoster.com,,,,,,,Canada,linkedin.com/company/longandfosterco,,,,,,,,,
Lukrom LLC,lukrom.com,Phoenix,Arizona,85018,,4455,East Camelback Road,United States,https://www.linkedin.com/company/lukrom/,,Fund,,,,,,,
Madison Communities,livemadisoncommunities.com,,,,,,,Canada,,,,,,,,,,
FAB Homes,magozo.us,,,,,,,,,,,,,,,,,
Makad,makad.com,Vancouver,Washington,98660,,500,Broadway Street,United States,linkedin.com/company/makad-corp,,,,,,,,,
Manzo Freeman Development,manzofreeman.com,Hudson,Massachusetts,01749,,43,Broad Street,United States,linkedin.com/company/manzo-freeman-development,,,,,,,,,
Marble Partners,marblepartners.com,,,,,,,,,,,,,,,,,
Mariner Capital Advisors,marinercapitaladvisors.com,Overland Park,Kansas,,,,,United States,,,,,,,,,,
Arch to Philanthropy,archcharity.org,,,,,,,Canada,linkedin.com/company/arch-to-philanthropy,,,,,,,,,
Lionheart Ventures,mba2010.hbs.edu,,,,,,,Canada,,,,,,,,,,
MedCore Partners,medcorepartners.com,,,,,,,,linkedin.com/company/medcore-partners,,,,,,,,,
REI Nation,reination.com,Germantown,Tennessee,,,,,United States,,,,,,,,,,
Memphis Investment Properties,memphisinvestmentproperties.net,,,,,,,,,,,,,,,,,
Hope Housing Foundation,hopehousingfoundation.org,Dallas,Texas,,,,,United States,linkedin.com/company/hope-housing-foundation,,,,,,,,,
MeredithCPAs,meredithcpas.com,Irving,Texas,,,,,United States,linkedin.com/company/meredithcpas,,,,,,,,,
"Meyers, Roman, Friedberg & Lewis",meyersroman.com,Cleveland,Ohio,44122,,28601,Chagrin Boulevard,United States,linkedin.com/company/meyers-roman-friedberg-&-lewis-a-legal-professional-association,,,,,,,,,
MHC America Fund,mhcamericafund.com,Orlando,Florida,32801,,255,South Orange Avenue,United States,linkedin.com/company/mhc-america-fund-llc,,Fund,,,,,,,
Titanium Capital Investments,mikefritz.net,,,,,,,,,,,,,,,,,
Mill Creek Entertainment,millcreekent.com,,,,,,,,,,,,,,,,,
MAG Capital Partners,magcp.com,Fort Worth,Texas,76107,,1751,River Run,United States,linkedin.com/company/mag-capital-partners,,,,,,,,,
Mojave Energy Systems,mojavehvac.com,Palo Alto,California,94301,,438,Addison Avenue,United States,linkedin.com/company/mojave-energy-systems-inc,,,,,,,,,
Mommy Millionaire,mommymillionaire.co,Newport Beach,California,92660,,4,Cheshire Court,United States,linkedin.com/company/mommy-millionaire,,,,,,,,,
Mongo Holdings LLC,mongoholdings.com,,,,,,,,,,,,,,,,,
Morning Calm Management,morning-calm.com,West Palm Beach,Florida,33409,,1641,Worthington Road,United States,linkedin.com/company/morning-calm-management,,,,,,,,,
Morrison Investment Group,morrison-investments.com,,,,,,,,linkedin.com/company/morrison-investment-properties-inc,,,,,,,,,
Motto Mortgage,mottomortgage.com,,,,,,,,linkedin.com/company/motto-mortgage,,,,,,,,,
DJ & Lindsey Real Estate,moveto904.com,,,,,,,Canada,,,,,,,,,,
MRE Home Buyer,mrehomebuyer.com,,,,,,,,,,,,,,,,,
"The Donohoe Companies, Inc.",msn.com,,,,,,,,,,,,,,,,,
Equis Hotels,mullenixcos.com,,,,,,,Canada,,,,,,,,,,
Ascent Commercial Real Estate,myascentcre.com,Wilmington,Delaware,,,,,United States,,,,,,,,,,
Aspen Heights Partners,myaspenheights.com,,,,,,,,,,,,,,,,,
My Core Intentions,mycoreintentions.com,Chicago,Illinois,,,,,United States,linkedin.com/company/mycoreintentions,,,,,,,,,
National Asset Capital Group,nacapitalgroup.com,,,,,,,,,,,,,,,,,
Nexus Capital,ncapco.com,Pittsford,New York,14534,,,,United States,linkedin.com/company/ncapco,,,,,,,,,
New Castle Hotels & Resorts,newcastlehotels.com,,,,,,,,,,,,,,,,,
CBUS OZ Funds,cbusozfunds.com,,,,,,,,linkedin.com/company/cbusozfunds,,,,,,,,,
NewcrestImage,newcrestimage.com,Lewisville,Texas,75067,,700,State Highway 121,United States,linkedin.com/company/newcrestimage,,,,,,,,,
Purpose Founder,newreacheducation.com,,,,,,,Canada,,,,,,,,,,
NextGen Capital,nextgencap.com,,,,,,,,linkedin.com/company/nextgen-capital,,,,,,,,,
Calturas Capital,ngcip.com,,,,,,,,,,,,,,,,,
Nimble Capital Group,nimblecapitalgroup.com,,,,,,,,,50,Fund,,,,,,,
NITAAC,nitaac.nih.gov,,,,,,,,linkedin.com/company/nitaac,,,,,,,,,
Noble Capital,noblecapital.com,,,,,,,,,,,,,,,,,
Northgate Commercial,northgatecre.com,Stockton,California,95207,,4643,Quail Lakes Drive,United States,linkedin.com/company/northgate-commercial,,,,,,,,,
Northwest Apartments,northwestApartments.com,Washington,District of Columbia,,,,7th Street Northwest,United States,linkedin.com/company/northwest-Apartments,,,,,,,,,
Nova Asset Managment,novaassetmanagement.net,,,,,,,,,,,,,,,,,
Novak Brothers,novakbros.com,Georgetown,Texas,78628,,233,Adams Street,United States,linkedin.com/company/novak-brothers-companies,,,,,,,,,
EXPANSIVE,novelcoworking.com,,,,,,,,,,,,,,,,,
Nationwide Real Estate Executives,nreliving.com,,,,,,,,,,,,,,,,,
National Realty Investment Advisors,nria.net,Secaucus,New Jersey,,,,,United States,,,,,,,,,,
Birchstone Wealth Fund,nyms.net,,,,,,,,,,,,,,,,,
Obie Companies,"ofd.com, obie.com",,,,,,,,,,,,,,,,,
OneVillage Partners,onevillagepartners.org,Minneapolis,Minnesota,,,,,United States,linkedin.com/company/onevillage-partners,,,,,,,,,
Hall Sweeney Properties,hallsweeney.com,Minneapolis,Minnesota,,,,,United States,linkedin.com/company/hall-sweeney-properties-llc,,,,,,,,,
Opportunity Zone Development Group,opportunityzonedevelopmentgroup.com,Columbus,Ohio,43215,,1233,Dublin Road,United States,,,,,,,,,,
OZ Pros,ozpros.com,,,,,,,,,,,,,,,,,
Deuel International Group,pacbell.net,Del Mar,California,92014,,,,United States,,,,,,,,,,
Fidelis Private Fund,fidelispf.com,San Diego,California,,,,,United States,,,,,,,,,,
ParaWest Management,parawestmanagement.com,,,,,,,,,,,,,,,,,
Park Ave Capital,parkavecapital.com,,,,,,,,,,,,,,,,,
Park Street Partners,parkstreetpartners.com,Ladera Ranch,California,92694,,27762,Antonio Parkway,United States,linkedin.com/company/park-street-partners,,,,,,,,,
Park Avenue Partners Mobile Home Park Investing,parkstreetpartners.net,,,,,,,,,,,,,,,,,
"Passco Companies, LLC",passco.net,,,,,,,Canada,,,,,,,,,,
"Paul Montelongo Enterprises, Inc",paulmontelongo.com,,,,,,,,,,,,,,,,,
Prosperity Capital Partners,pcpre.net,,,,,,,Canada,linkedin.com/company/prosperitycapital-partners,,,,,,,,,
Easy Button Capital,pdxphx.com,,,,,,,,,,,,,,,,,
Three,peakerenergy.com,,,,,,,Canada,,,,,,,,,,
Peak Financing,peakfinancing.com,Dallas,Texas,,,,,United States,linkedin.com/company/peak-financing,,,,,,,,,
Pecan Creek Office Condominiums,pecancreekofficecondos.com,Fort Worth,Texas,,,,,United States,,,,,,,,,,
Peoples Company,peoplescompany.com,,,,,,,,,,,,,,,,,
People to Places Travel Concierge,peopletoplacestravel.com,,,,,,,,linkedin.com/company/people-to-places-travel-concierge-llc,,,,,,,,,
Polymath Legal,pepperdine.edu,,,,,,,,,,,,,,,,,
Phoenix Equity Group,phoenixeq.com,,,,,,,,,,,,,,,,,
Pivot,pivot-energy.com,Denver,Colorado,,,,,United States,linkedin.com/company/pivot-energy-solutions,,,,,,,,,
PNC Financial Services,pnc.com,,,,,,,,,,,,,,,,,
Polara Capital,polaracapital.com,Roswell,Georgia,30075,,408,South Atlanta Street,United States,linkedin.com/company/polara-capital,,,,,,,,,
Polaris Realty,polarisrealty.com,,,,,,,,,,,,,,,,,
Post Investment Group,postinvestmentgroup.com,,,,,,,,,,,,,,,,,
Power Capital Group,powercapitalgrp.com,Austin,Texas,,,,,United States,linkedin.com/company/powercapital,,,,,,,,,
The Praxis Center,praxis-center.com,,,,,,,,,,,,,,,,,
Premier Law Group,premierlawgroup.net,Fountain Hills,Arizona,85268,,,,United States,linkedin.com/company/premier-law-group,,,,,,,,,
Premium Law Group,premiumlawgroup.com,,,,,,,,,,,,,,,,,
Priam Capital,priam-capital.com,,,,,,,,,,,,,,,,,
Promanas,promanas.com,Ann Arbor,Michigan,48103,,2433,Oak Valley Drive,United States,linkedin.com/company/promanas,1000,Syndication,,,,,,,
Prspera,prospera.hn,,,,,,,,,,,,,,,,,
Provision Capital,provisioncapital.com,Dallas,Texas,75201,,1920,McKinney Avenue,United States,linkedin.com/company/provision-capital,,,,,,,,,
Rainbow Realty Group,rainbowrg.com,New York,New York,10022,,500,Park Avenue,United States,linkedin.com/company/rainbowrg,,,,,,,,,
RealAssets,realassets.com,,,,,,,,,,,,,,,,,
Redwood Capital Group,redwoodcapgroup.com,,,,,,,,,,,,,,,,,
Reliance Investors,relianceinvestors.com,,,,,,,,,,,,,,,,,
REM Capital,remcapital.com,Sheridan,Wyoming,82801,,,,United States,linkedin.com/company/rem-capital,,,,,,,,,
Republic Properties Corporation,republic-urban.com,,,,,,,,,,,,,,,,,
RERX Capital Inc,rerxcapital.com,,,,,,,,linkedin.com/company/rerxcapital,,,,,,,,,
MCB Capital,mcbcapitalmarkets.mu,Dallas,Texas,,,,,United States,,,Fund,,,,,,,
Rhodium Asset Management,rhodiumlp.com,,,,,,,,,,,,,,,,,
Kingsdel Real Estate,kingsdelrealestate.com,,,,,,,Canada,linkedin.com/company/kingsdel-real-estate,,,,,,,,,
River Queen Holdings LLC Opportunity Zone Fund,riverqueenbishop.com,Bishop,California,93514,,,,United States,,,Fund,,,,,,,
Rockstar Capital Development Group,rockstarcapitalfund.com,,,,,,,,,,,,,,,,,
RSE Capital Partners,"rsecap.com, fundrise.com",Washington,District of Columbia,20036,9th floor,11,Dupont Circle Northwest,United States,linkedin.com/company/rse-capital-partners,,,,,,,,,
S3 Your Financial Future,s3yourfinancialfuture.invportal.com,,,,,,,Canada,,,,,,,,,,
SA&B Group,saandbnamibia.com,,,,,,,,,,,,,,,,,
SALT Dev,saltdev.com,Salt Lake City,Utah,84103,,205,North 400 West,United States,linkedin.com/company/salt-dev,,,,,,,,,
SANT Realty Investments,santerealty.com,Tempe,Arizona,85282,,4440,South Rural Road,United States,linkedin.com/company/sante-international,,Fund,,,,,,,
Saranac Holdings,saranacholdings.com,,,,,,,Canada,,,,,,,,,,
Saratoga Group,saratogagroup.com,,,,,,,Canada,linkedin.com/company/the-saratoga-group,,,,,,,,,
White Rock Real Estate,whiterockre.com,Salt Lake City,Utah,,,,,United States,,,,,,,,,,
Senior Housing Investment Partners,seniorhousinginvestmentpartners.com,Sheridan,Wyoming,82801,,,,United States,,,,,,,,,,
Seven West Capital,sevenwestcap.com,,,,,,,,,,,,,,,,,
Shannon Robnett Industries,shannonrobnett.com,Meridian,Idaho,83642,,3277,East Louise Drive,United States,linkedin.com/company/shannon-robnett-industries,120,Syndication,,,,,,,
Short Term Sage,shorttermsage.com,,,,,,,Canada,,,,,,,,,,
simpliHM,simplihom.com,Brentwood,Tennessee,,,,,United States,https://www.linkedin.com/company/simplihom/,,,,,,,,,
"Secured lending Group, LLC",slg.llc,,,,,,,,,,,,,,,,,
Heartland America,smillsco.com,,,,,,,,,,,,,,,,,
Smith & Company,smithcpas.com,San Rafael,California,94901,,1527,Fifth Avenue,United States,linkedin.com/company/smith-company-cpa-s,,,,,,,,,
Qi Capital,solutions88.com,,,,,,,,,,,,,,,,,
Sorensen Entity Services,sorensenes.com,Glen Allen,Virginia,,,,,United States,,,,,,,,,,
Spartan Invest,spartaninvest.com,,,,,,,,,,,,,,,,,
Speedwagon Capital Partners,speedwagonproperties.com,,,,,,,,,,,,,,,,,
Sperry Equities,sperryequities.com,Irvine,California,,,,,United States,linkedin.com/company/sperry-equities-llc,,,,,,,,,
Fibo Technologies,stern.nyu.edu,,,,,,,Canada,,,,,,,,,,
Stonemont Financial,stonemontfinancial.com,Atlanta,Georgia,30305,,3280,Peachtree Road Northeast,United States,linkedin.com/company/stonemont-financial-group-llc,,,,,,,,,
Guerrier Development,storyvillegardens.com,Nashville,Tennessee,,,,,United States,,,,,,,,,,
Stout Cap,stoutbuild.com,,,,,,,Canada,,,,,,,,,,
Stomp Capital,str.university,,,,,,,,,,,,,,,,,
Strategic MHP Fund,strategicmhpfund.com,,,,,,,,,,,,,,,,,
Strawberry Fields OK,strawberryfieldsok.com,,,,,,,,,,,,,,,,,
Strive Wealth Builders,strivewealthbuilders.com,Albany,California,94706,,828,San Pablo Avenue,United States,linkedin.com/company/strive-wealth-builders-inc-,,,,,,,,,
Suncrest Capital,suncrestcap.com,,,,,,,,,,,,,,,,,
Swinerton,swinerton.com,,,,,,,,,,,,,,,,,
Southwestern Investment Advisors,southwestinvestmentadvisors.com,Denver,Colorado,,,,,United States,linkedin.com/company/siatucson,,,,,,,,,
T2 Capital Management,t2investments.com,,,,,,,,,"1470000000",,,,,,,,
Tapestry Senior Housing Management,tapestrysenior.com,Bloomington,Minnesota,55425,,2001,Killebrew Drive,United States,linkedin.com/company/tapestry-seniorliving,,,,,,,,,
Epoch Investment Partners,td.com,Toronto,Ontario,M5H 3C2,,55,King Street West,Canada,linkedin.com/company/td,,,,,,,,,
Techvestor,techvestor.com,San Francisco,California,,,,,United States,linkedin.com/company/techvestor,,,,,,,,,
Tepuy Properties,tepuyproperties.com,Boulder,Colorado,,,,,United States,,,,,,,,,,
Angelina Capital Management,texasrealestate.org,,,,,,,,linkedin.com/company/angelinacapital,,,,,,,,,
The BAM Companies,thebamcompanies.com,Carmel,Indiana,46032,,11711,North Pennsylvania Street,United States,linkedin.com/company/thebamcompanies,,,,,,,,,
Capital Giants,capitalgiants.com,,,,,,,Canada,,,,,,,,,,
Crown Financial,thecrownpartners.com,,,,,,,,,,,,,,,,,
CURATED.,thecurated.group,Miami Beach,Florida,,,,,United States,linkedin.com/company/thinkcurated,,,,,,,,,
"The Davenport Group, Inc",thedavenportgroup.com,,,,,,,,,,,,,,,,,
The Firm Commercial,thefirmcommercial.com,Palm Springs,California,92262,,431,South Palm Canyon Drive,United States,linkedin.com/company/the-firm-commercial,,,,,,,,,
The Firm Capital Group,thefirmcapitalgroup.com,,,,,,,,linkedin.com/in/amgilbert,,,,,,,,,
The Holleran Group,theholleran.com,,,,,,,,linkedin.com/company/theholleran,,,,,,,,,
Mid Atlantic Secured Income Fund,themidatlanticfund.com,,,,,,,,,,Fund,,,,,,,
The Renaissance Companies,therenaissancecompanies.com,Chicago,Illinois,60647,,2001,West Churchill Street,United States,linkedin.com/company/the-renaissance-companies,,,,,,,,,
The RV Lifestyle,thervlifestyle.com,Greenfield,Indiana,46140,,2573,West 100 North,United States,https://www.linkedin.com/company/rvlifestyle/about/,,,,,,,,,
Third IV Properties,thirdivproperties.com,,,,,,,,,,,,,,,,,
Thomas Strafford Investments,thomas-strafford.com,San Diego,California,92102,,2801,B Street,United States,,,,,,,,,,
PowerShift Properties,thomison.com,,,,,,,Canada,,,,,,,,,,
Three Trains Partners,threetrains.com,,,,,,,,,,,,,,,,,
Thrivelab,thrivelab.com,,,,,,,Canada,,,,,,,,,,
Timberland Partners,timberlandpartners.com,,,,,,,,,,,,,,,,,
Transcendent Electra,timgmt.com,,,,,,,,,,,,,,,,,
Investor Loan Source,tivejo.com,,,,,,,,,,,,,,,,,
TM1 Properties,tm1properties.com,,,,,,,,,,,,,,,,,
TriArc Living,triarcliving.com,Spring,Texas,77373,,,,United States,,,,,,,,,,
Tricore Investment Group,tricoreinvestmentgroup.com,,,,,,,Canada,linkedin.com/company/tricore-investment-group,,,,,,,,,
Tri-Land Properties,trilandproperties.com,,,,,,,United States,,,,,,,,,,
Trion Properties,trion-properties.com,,,,,,,,,,,,,,,,,
TruePoint Capital,truepointcap.com,Katy,Texas,,,,,United States,,,,,,,,,,
Trutina Financial,trutinafinancial.com,Bellevue,Washington,98004,,10811,Main Street,United States,linkedin.com/company/trutina-financial,,,,,,,,,
Saber Equity,saberequityllc.com,,,,,,,,linkedin.com/company/saber-equity-houston,,,,,,,,,
Tucker Development,tuckerdevelopment.com,,,,,,,,,,,,,,,,,
Tunnel Equity,tunnelequity.com,Dallas,Texas,75201,,1700,Pacific Avenue,United States,linkedin.com/company/tunnel-equity-partners-llc,,,,,,,,,
Turnstone Group,turnstonegroup.com,Atlanta,Georgia,30309,,1170,Peachtree Street Northeast,United States,linkedin.com/company/turnstone-group-llc,,,,,,,,,
Tuscan Gardens,tuscangardens.com,Orlando,Florida,32801,,189,South Orange Avenue,United States,linkedin.com/company/tuscangardens,,,,,,,,,
Twentynine17 Capital,twentynine17capital.com,Dallas,Texas,,,,,United States,,,,,,,,,,
Urban Development + Partners,udplp.com,,,,,,,,linkedin.com/company/udplp,,,,,,,,,
UFUND Investment,ufundinvestment.com,Austin,Texas,78759,,,,United States,linkedin.com/company/ufund-investment-llc,,Fund,,,,,,,
The Bernstein Companies,upenn.edu,,,,,,,,,,,,,,,,,
Uprise,uprisetx.com,,,,,,,,,,,,,,,,,
Urban Catalyst Fund,urbancatalyst.com,,England,W1T 2QA,,,,United Kingdom,linkedin.com/company/urban-catalyst-fund,,,,,,,,,
Urban Intent,urbanintent.com,,,,,,,,linkedin.com/company/urban-intent,,,,,,,,,
U.S. Bank,usbank.com,Minneapolis,Minnesota,55402,,800,Nicollet Mall,United States,linkedin.com/company/us-bank,,,,,,,,,
Velocity Venture Partners,velocityventurepartners.com,,,,,,,,,,,,,,,,,
The Veteran Fund,veteran.fund,,,,,,,,linkedin.com/company/theveteranfund,,Fund,,,,,,,
VFR Capital Investments,vfrcapitalinvestments.com,,,,,,,,,,,,,,,,,
Vukota Capital Management,vukotacapital.com,,,,,,,,,,,,,,,,,
Waypoint Pearl,waypointsunvalley.com,,,,,,,,,,,,,,,,,
Ocania Capital,wharton.upenn.edu,,,,,,,,,,,,,,,,,
Wick Capital Partners,wickcapitalpartners.com,Villanova,Pennsylvania,,,,,United States,,,,,,,,,,
Wildflower Ltd,wildflowerltd.com,,,,,,,,,,,,,,,,,
Willow Creek Partners,willowcreekpartners.com,Vienna,Virginia,22182,,8521,Leesburg Pike,United States,linkedin.com/company/willow-creek-partners,,,,,,,,,
Waterstone Capital,wnlawgroup.com,,,,,,,,,,,,,,,,,
Wolters Kluwer,wolterskluwer.com,,,,,,,,linkedin.com/company/wolters-kluwer,,,,,,,,,
Woodworth Contrarian Fund,woodworth.fund,McMinnville,Oregon,97128,,624,Northeast 2nd Street,United States,linkedin.com/company/woodworth,,Fund,,,,,,,
Yodo1,yodo1.com,Beijing,Beijing,,,,,China,linkedin.com/company/yodo1,,,,,,,,,
"Cornerstone Benefits Consulting, LLC",yourcornerstone.net,,,,,,,,,,,,,,,,,
RealSource,yourrealsource.com,Hoover,Alabama,,,,,United States,https://www.linkedin.com/company/realsource/,,,,,,,,,
YummyCiti Inc,yummyciti.com,,,,,,,,,,,,,,,,,
ZaneCRE,zanecre.com,Plano,Texas,75075,,,,United States,linkedin.com/company/zanecre,,,,,,,,,
Ziff Real Estate Partners,ziffcre.com,Mount Pleasant,South Carolina,29464,,210,Wingo Way,United States,linkedin.com/company/ziff-real-estate-partners,,,,,,,,,
Bamcap Group,bamcap.vc,,,,,,,,linkedin.com/company/bamcap,,,,,,,,,
Born Again Real Estate Investments,investingwithpassion.com,,,,,,,,,,,,,,,,,
Crazy Rich Immigrants,crazyrichimmigrants.com,,,,,,,,,,,,,,,,,
Domos,domosfs.com,,,,,,,,linkedin.com/company/domos-fs,,,,,,,,,
Elevation Capital Group,elevationcapitalgroup.com,,,,,,,,linkedin.com/company/elevationcapitalgroup,,,,,,,,,
Endurus Capital,enduruscapital.com,,,,,,,,linkedin.com/company/endurus-capital,,,,,,,,,
Huffman Group,huffman.group,,,,,,,,linkedin.com/company/huffman-group-llc,,,,,,,,,
Invex Capital Group,invexcap.com,,,,,,,,,,,,,,,,,
Madison Investing,madisoninvesting.com,,,,,,,,linkedin.com/company/madison-investing,,,,,,,,,
Mathis,mathis-consulting.com,,,,,,,,https://www.linkedin.com/company/mathis-llc/,,,,,,,,,
NRE Executives,nrecareers.com,,,,,,,,linkedin.com/company/nationwide-real-estate-executives,,,,,,,,,
